ID,id,name,organization_id,alternate_name,transportation,latitude,longitude,description,location_services,location_phones,location_details,location_schedule,location_address,flag
1,545582499398807,"Patient Advocacy Office",0,,,40.719663,-73.997675,,646672113492683,1219056005908876,,,955971997114080,,
2,558690609490523,"Court Square Law Office",1057674245692822,,,40.74767,-73.943638,,1163635550532432,,,,590336741343629,,
3,561148298054173,"Neighbor to Neighbor Bloomingdale",850259382865797,,,40.7999209,-73.9683102,,"619599394487325,998151779788022","858808717862931,887982365412282",,,617201724489692,,
4,561779752822615,"Hunter College Campus",751944288598510,,,40.7685437,-73.9651879,,1344051922955818,1170024339255780,,,839756563631856,,
5,568630493978873,"Memory Tree DOROT",0,,,40.7870587,-73.9750254,,1253214211998009,1150702256939137,,,801326186311509,,
6,563591937429247,"Adult Day Health Care Program Bronx",1139716345357307,,,40.8528373,-73.837068,,1271796728231431,,,,746735676880343,,
7,566266798182272,"International Low Vision Office",0,,,38.8965599,-94.5498108,,1019842691268144,,,,1255874882443712,,
8,572437871684762,"Enea, Scanlan & Sirignano, LLP",0,,,41.0332399,-73.7661881,,1201949109066241,,,,837025004887312,,
9,574376589030689,"Westfair Rides",0,,,41.1936384,-73.7258759,,1252521081622287,,,,1246275154405508,,
10,595166933017642,"Institute for Retired Professionals Manhattan",882170858209681,,,40.7370204,-73.9922426,,1109860177950808,1089166955636887,,,791643835374655,,
11,594665162219120,"Sage Harlem Agency",1202577900100445,,,40.8106543,-73.9482073,,776533076120789,589568886905732,,,941042918078004,,
12,607967634449454,"Financial Empowerment Center NYC",0,,,40.719663,-73.997675,,1128329270945852,,,,955971997114080,,
13,610396374228362,"One Shot Deal Office",772084713101318,,,40.719663,-73.997675,,1107249340978249,690005646305529,,,955971997114080,,
14,564742220711597,"Educational Alliance Office",781836024471454,,,40.73055,-73.9843416,,1155205412613057,896837821919114,,,1102510485832658,,
15,571527641040410,"Antonio Olivieri Drop-In Center Manhattan",585352554048372,,,40.7495646,-73.994417,,1218662248579999,,,,1308671721967520,,
16,584835880268323,"The Met Council on Jewish Poverty Agency",0,,,40.704281,-74.0082994,,1214881164658172,737887887424485,,,959807357164828,,
17,600077058426789,"Lincoln Center Concerts",805627125800715,,,40.774062,-73.9840819,,641800255430222,1118773524261889,,,1161463956709772,,
18,601838143260855,"Rosenthal & Markowitz, LLP",0,,,41.0473345,-73.8019289,,826218319073935,,,,1273336219947260,,
19,604286463973708,"Search & Care Agency",875189273598571,,,40.7836821,-73.9471414,,"592617644766948,979647759133794,887505557148962,818205341298030",933127730613617,,,1129861482680271,,
20,608050564781011,"Masbia Boro Park",0,,,40.6323632,-73.9955253,,"906157907788099,1292864991200757",,,,1223508587714383,,
21,575196641931899,"U.S. Department of Veterans Affairs Office",1295012969068938,,,40.7528964,-73.9722049,,"1102354014602661,972456099283146",,,,903689394971972,,
22,592006797094234,"The Legal Aid Society NYC Offices",0,,,40.719663,-73.997675,,1288051650495794,984462671444449,,,955971997114080,,
23,589921434208803,"Zingone Brothers Store",0,,,40.7842125,-73.9735216,,934871686281700,1043712164296858,,,641926164859656,,
24,590969374564289,"Alzheimerâ€™s Disease & Related Dementias Family Support Program Manhattan",839836754614022,,,40.7450693,-73.9800222,,1197949764240847,,,,901434766768659,,
25,611465990733201,"Hearing Loss Association NYC Office",563187769851162,,,40.7530291,-73.7071214,,"893792185496529,1106906665297264",,,,1180859359074125,,
26,574635489323480,"BronxWorks Administration Office",850652418731445,,,40.8508816,-73.9081018,,1147705615071897,,,,1010565069679249,,
27,576975032913041,"Eden Gourmet Morningside Heights",0,,,40.8022514,-73.9674752,,916134569938827,,,,1302585473484597,,
28,629528344595784,"The New York Hearing Center-Staten Island",0,,,40.5730446,-74.1077076,,581914407561626,835085424564704,,,1170467860831905,,
29,633941962467510,"Legal Referral Service Mailing Address",843755999363023,,,40.755472,-73.982205,,730910006564936,838851197051074,,,919181871279364,,
30,639449550055644,"Legal Services for the Elderly in Queens Office",1120414012913334,,,40.729156,-73.8584415,,1142867068784057,1145338820284234,,,837955669488262,,
31,641535127444773,"Integrity Senior Services Manhattan",0,,,40.7492988,-73.9859014,,"970737263301233,1250503896058178,1061527495042237",1269788011979782,,,889256005961394,,
32,579397005327715,"Therapy Dog International Office",0,,,40.8332716,-74.7121088,,1241384952119080,,,,610509037893528,,
33,584879719461953,"New Jewish Home-Westchester",1139716345357307,,,40.9445492,-73.745478,,,,,,645755098700973,,
34,599306518734171,"Union County Paratransit System Office",0,,,40.6665066,-74.2195375,,902915716647397,1005487151098202,,,1234378012832324,,
35,600230560300467,"Caregiver Resource Center NYC",864711120858468,,,40.719663,-73.997675,,865486474700577,,,,955971997114080,,
36,609837285915880,"IAM International Aphasia Movement-NY",812920078238946,,,40.7348246,-73.9897603,,781367055440863,,,,1040089308252309,,
37,632376271916875,"Arts & Minds Programs",1149907944072308,,,40.7528964,-73.9722049,,906057727348234,,,,903689394971972,,
38,651880716415612,"Support Connection Office",0,,,41.2781077,-73.7799118,,627511706500348,,,,1142043056498164,,
39,587659450099991,"Educational Alliance Manny Cantor Center",781836024471454,,,40.7139708,-73.9883747,,1095268672603108,,,,855425134285440,,
40,612991570845915,"Weill Cornell Medicine-Division of Geriatrics and Palliative Medicine",874300745043714,,,40.7645239,-73.9624327,,760494792675702,,,,1286244915576853,,
41,614547283019295,"Covia Well Connected ",0,,,37.909502,-122.066246,,"848330157196899,1175389810228890",,,,937132598457152,,
42,622250378340276,"Sunnyside Community Services Queens",0,,,40.7451662,-73.9256081,,647550805587258,,,,594630229760890,,
43,636786818241649,"Columbia College Dental Office",749199819507130,,,40.8412426,-73.9409706,,584037093110292,,,,1219157248301161,,
44,657741214801376,"Social Services Office-West Side Campaign Against Hunger",859311048444171,,,40.7889677,-73.9772637,,960617758768539,1098031386765087,,,834669419954225,,
45,659515711242608,"NYC Housing Connect Lottery Office",538730903843188,,,40.719663,-73.997675,,949049494480930,,,,955971997114080,,
46,657308519913165,"The Caregiver Resource Center",0,,,41.0676332,-73.5888575,,784080264183843,,,,1116749681420034,,
47,597549259313335,"A Place for Mom Online",0,,,40.719663,-73.997675,,1193096074780780,,,,955971997114080,,
48,602072727071999,"William Alanson White Institute Clinic",0,,,40.7778138,-73.9761835,,1141581628840504,,,,877827575879592,,
49,603106980746590,"Mt. Sinai Beth Israel Hospital",1223129242355426,,,40.7326656,-73.9815974,,855881833579163,671864331328810,,,832844799388495,,
50,612641952771609,"Garito Manor",0,,,40.9095072,-73.7927835,,1306565861277471,,,,743224050994340,,
51,637170263897132,"Atria West 86",553501090665356,,,40.7896563,-73.9793001,,"1337566135151280,1066576182461485",1100948996979897,,,736904742039377,,
52,638454976676154,"NJ 211 Office",0,,,40.719663,-73.997675,,635767014777690,"831790758217048,1118602068378559",,,955971997114080,,
53,657361025169638,"Lenox Hill Hospital Library",1316318060699368,,,40.7739303,-73.9608921,,1327603866686607,1187435639779273,,,1234206261029242,,
54,665908716099324,"Starkey Hearing Foundation Office",0,,,44.881702,-93.4009467,,1317272831608081,661098508518727,,,781905515728114,,
55,670929657094775,"The Blue Card Office",0,,,40.7472033,-73.9831256,,629330886498169,1173180035979255,,,1124196137589616,,
56,606626868016020,"Chelsea Soup Kitchen",1214287184965619,,,40.7492675,-73.9987536,,660358273093811,577382760984543,,,883017278918660,,
57,635813831197877,"Brooklyn Friendship House",999420709614592,,,40.7090048,-73.9432787,,914898037644455,,,,646770628651997,,
58,634201937942078,"ElderServe Mid-Westchester",0,,,41.0333425,-73.7708604,,855849468189520,,,,591809196286438,,
59,641065871140037,"79th Street Pharmacy Upper West Side",0,,,40.7836413,-73.9790684,,1232906762960956,,,,587992724534286,,
60,677875567988405,"White Plains Hospital Center Caregiver Support",0,,,41.0258774,-73.7696654,,757049656815040,,,,1271093616374851,,
61,621483052059786,"Goddard Riverside Columbus",923109536688861,,,40.7878119,-73.9707358,,1021042715591141,1168708032347321,,,1291417137894411,,
62,624587549571008,"Senior Helpers Office",0,,,40.7071762,-74.0124086,,944976351051041,799800317913732,,,1010477474135532,,
63,628786748725608,"United Jewish Council of the East Side Social Services",0,,,40.7151396,-73.9828151,,1145192161147031,711348531869838,,,620719617398611,,
64,646191607198056,"Selis Manor",0,,,40.7437564,-73.9941643,,975722961848397,,,,838672917666836,,
65,651750585468528,"Sephardic Bikur Holim Brooklyn",0,,,40.604699,-73.9748302,,749277676940883,1153510485802142,,,973009618604275,,
66,656345793757227,"Union County Division on Aging Office",0,,,40.719663,-73.997675,,1118996510178375,1182235656872948,,,955971997114080,,
67,668507123937673,"Jewish Home Bronx",1139716345357307,,,40.8528373,-73.837068,,1119307712797759,1105065196815752,,,746735676880343,,
68,672103964786737,"Renewal Care Office",0,,,40.7571802,-73.967522,,1118447497322381,772011305196605,,,837527037278398,,
69,675922632877409,"Homeless In-Reach Office",955701872476582,,,40.7561731,-73.9845694,,833708272440161,,,,857723289913679,,
70,686559333444510,"Service Program for Older People-Brooklyn",0,,,40.704328,-73.793782,,"807781285922296,852591308861622",942456039150589,,,1243005692710265,,
71,684977594666329,"West 74th Street Residence Manhattan",0,,,40.7801844,-73.9808703,,1193482002785457,1322162073767565,,,765414916137459,,
72,636785171594340,"The Bristal White Plains",0,,,41.0268031,-73.7478776,,1282944752309630,,,,1202000137791062,,
73,656162201896628,"Dental Lifeline Network Headquarters",1211403588691295,,,39.7516293,-105.0035104,,1261034223345738,,,,1107694687614602,,
74,682665557016520,"The Jewish Museum at 92nd Street",0,,,40.7854206,-73.9572934,,1080670404294287,,,,941572564673458,,
75,688527544165377,"Flex Physical Therapy Midtown West",0,,,40.7532276,-73.9914584,,1189113237018242,583081775097928,rec6462szglOieydH,,964533507086015,,
76,698464460411906,"NYLAG Office",0,,,40.7041411,-74.009493,,"802543237937238,1227805757052460",608864816530159,,,1180366400470295,,
77,697325863842099,"PSS Home Care Queens",0,,,40.7390876,-73.8072704,,1335605835095590,1203085986302192,,,650308176658513,,
78,718148789386701,"Martine Center for Rehabilitation and Nursing",0,,,41.0236833,-73.774951,,1288869394363879,,,,985003568514780,,
79,724810729843820,"College at 60 Lincoln Center",0,,,40.7696975,-73.9833311,,,,,,595261279230167,,
80,729332525899854,"252 Bryant Avenue",0,,,41.0219612,-73.7469398,,,,,,,,
81,731499650370942,"Anti-Eviction Housing Office Bronx",1303487432314987,,,40.7083827,-74.0072011,,1109362982511146,1213798608856801,,,908100479316573,,
82,734935691540835,"Touching Hearts at Home-Manhattan",0,,,40.7511757,-73.9800156,,848009902936406,644892434441299,,,890365070778148,,
83,731347581640527,"Broadway Chemists Upper West Side",0,,,40.7882604,-73.9771719,,867179253373388,,,,1123120065134683,,
84,775481941389324,"Alzheimer's Disease Resource Center-Main Office",0,,,40.7228515,-73.2511494,,1287996806329445,,,,898285584260360,,
85,769619830768525,"Housing Conservation Coordinators, Inc. Office",983279313641184,,,40.7662892,-73.9908445,,"856540091057743,671412938379029",1177385215314132,,,769461493908132,,
86,774273106095161,"Catholic Charities-Brooklyn & Queens",1057271249593433,,,40.6928261,-73.9917738,,1308196365475201,1159036923019159,,,995073113368146,,
87,780043939873286,"Sage Eldercare NJ",0,,,40.7150407,-74.355185,,980311998959939,945066579726397,,,937477360910589,,
88,785448993002585,"The Pines",0,,,41.1729103,-73.8442496,,964058957510307,,,,1099501997135733,,
89,784800444976062,"Mayor's Alliance for NYC's Animals Mailing Address",0,,,40.7446298,-73.987667,,969903806987451,1284066901222265,,,662076769689609,,
90,785836677337472,"Nothing Forgotten Office",0,,,40.7927409,-73.9679887,,1012491329529162,764580363283286,,,1153142435839174,,
91,750855764478228,"The Hebrew Home at Riverdale",0,,,40.910967,-73.9097402,,886515346401663,,,,911353104260518,,
92,793686677552335,"R.A.I.N. East Chester Office",1237041489023557,,,40.8705698,-73.8510172,,1203292248460080,"661238878446092,940025562772061",,,729434234446855,,
93,795409117118026,"House Call Dentists Manhattan",0,,,40.7604884,-73.9706578,,818978369006787,,,,656996929758680,,
94,792647573931865,"305 West End Assisted Living Manhattan",1288044313088279,,,40.7815998,-73.983508,,"830884025300190,1155024736332656",597220093899977,,,1150624172907663,,
95,736016270382730,"Caption Call Office",0,,,40.719663,-73.997675,,623497844436346,,,,955971997114080,,
96,742394022054398,"55 Kip Center-NJ",0,,,40.8286705,-74.1033493,,1158759157820535,,,,1167973256390437,,
97,773444037771857,"Affordable Housing Offices",929828904477796,,,40.7528964,-73.9722049,,1078136644723933,,,,903689394971972,,
98,771483187355049,"Weill Cornell Medicine",874300745043714,,,40.7649151,-73.954897,,742345692201969,753557336459670,,,1064244123014557,,
99,779111459211010,"SAGE Agency Long Island",902781566366502,,,40.7217095,-73.2512416,,846867475547086,635918232386334,,,1077968827043382,,
100,813001250720900,"Senior Health and Consultation Center Greenwich Village",796026064627918,,,40.7322731,-74.0030659,,1111403286785411,,,,912776048789701,,
101,745545957016997,"Henry Street Settlement Agency",621590574293234,,,40.7140074,-73.9845201,,"904435870052202,647963469199800","596375484728437,947211911095759",,,1231025244767006,,
102,755062833700735,"Homes & Community Renewal Office",899848429172322,,,40.719663,-73.997675,,1132520168125650,,,,955971997114080,,
103,802703984103645,"Select Care Office",0,,,0,0,,1322256938475139,571539544273047,,,901328021315746,,
104,800115976710076,"Club 76 West Side",999420709614592,,,40.7803034,-73.978182,,"809594915267226,1187283213398988",,,,653767757476457,,
105,803273260259437,"Bronx Jewish Community Council, Inc. Office",608478388100121,,,40.8690571,-73.8640432,,"1217784119892646,895897993855079",938318263388040,,,800166269666778,,
106,809957051513971,"NYC Well Hotline",981339163697092,,,40.719663,-73.997675,,784061477239139,790564212894605,,,955971997114080,,
107,818466611933505,"CIDNY Queens",0,,,40.7136525,-73.8312293,,1149681920153095,,,,1257871518955807,,
108,818262783520902,"Cancer Care Office",0,,,40.7455684,-73.9941599,,954772931172809,,,,612919070135370,,
109,820448574506867,"Medicare Rights Center Office",0,,,40.7538382,-73.9918639,,678225650204200,981955137220066,,,787663585182344,,
110,820259091149125,"Geriatric Medicine and Aging Hospital ",0,,,40.8733663,-73.9131104,,1234039610795036,,,,955964085225954,,
111,775481781223730,"Moravian Open Door Residence",0,,,40.7342155,-73.9811938,,733448619284596,851093536874721,,,925661966666383,,
112,778812412818107,"Helen Keller Services For the Blind-Brooklyn",0,,,40.6896312,-73.9869554,,983906763425133,,,,1070365286349848,,
113,783848140153866,"Catholic Charities-Long Island",926566663310552,,,40.7473922,-73.5319167,,,945236319112691,,,866773471296980,,
114,784828668663007,"Project C.A.R.T Transportation Program",1179556252611577,,,40.7405083,-73.9783778,,980285269693573,1308884611777017,,,1284694775771908,,
115,792766212966007,"Karen Horney Clinic East Side",0,,,40.7622426,-73.961721,,821364371870454,793575198331736,,,1066734108371157,,
116,798958013337792,"ClearCaptions Office",0,,,40.719663,-73.997675,,,,,,955971997114080,,
117,808376525570252,A-HOME,0,,,41.1329858,-73.7898422,,1226151206612260,,,,1195064303629753,,
118,811911463255568,"Down to Earth Funerals Brooklyn",0,,,40.6217768,-73.9270151,,1150675709722671,1297635808574998,,,770115698354896,,
119,813872266131333,"Greenwich House-Senior Center on the Square",796026064627918,,,40.7319414,-73.9976956,,713324434220839,,,,1092371168209127,,
120,817064838386609,"The Jewish Board Agency",1212127567201393,,,40.7609404,-73.9821974,,"1077341156049049,1299306345384176,1242765695469023,1201897000634222",785303374266542,,,812773064685081,,
121,824412171835980,"Elder Law Answers Directory",0,,,40.719663,-73.997675,,648525876344618,,,,955971997114080,,
122,826434062003328,"Riverdale Senior Services Office",0,,,40.8786721,-73.9147998,,652845412907744,,,,1125425694826942,,
123,769404684056511,"Laguardia Senior Center Downtown",929828904477796,,,40.7116748,-73.9878943,,633842245420873,1273769326487579,,,833553668427052,,
124,770656150916599,"Puppies Behind Bars Agency",0,,,40.7545523,-73.9908539,,577119440814762,1307508907633677,,,762608704158308,,
125,786555442968834,"Clearview Senior Center Queens",685028959367331,,,40.7768766,-73.7833166,,938961765281346,1232479289309431,,,1097684414081172,,
126,791468515442281,"Foster Grandparents DFTA",616711493480804,,,40.719663,-73.997675,,619738429158848,,,,955971997114080,,
127,792071260366274,"Legal/Social Work Elder Abuse Program Brooklyn",1120414012913334,,,40.692761,-73.9913147,,1181459905867825,1291266517439032,,,577107505117577,,
128,796422747447092,"Sage Center Bronx Agency",1202577900100445,,,40.8606063,-73.8960238,,1217330047058019,561552896796419,,,624304836218464,,
129,803531070000649,"Jessica Seidel, LCSW",0,,,41.0069417,-73.8524278,,1304713068423859,,,,810313990766352,,
130,820815991909974,"Yonkers Meals on Wheels",0,,,40.9172758,-73.9020001,,,634042097963939,,,,,
131,831478916763568,"IAM Aphasia Program-Manhattan",0,,,40.7348246,-73.9897603,,781367055440863,,,,1040089308252309,,
132,836161221805129,"Upper East Side Housing Works",0,,,40.7766333,-73.9579528,,1155279974732807,785381637784339,,,545540211397517,,
133,787524437126525,"Dance for PD Office",1117752841143569,,,40.6869833,-73.9789168,,981185274806868,625617453905147,,,847361755068773,,
134,792178334018646,"JFCS of Northern NJ-Wayne Office",0,,,40.9549426,-74.2110999,,633851278206049,1279540666574393,,,1090470540858526,,
135,817374827138799,"Memory Care at Phelps Hospital",0,,,41.1087955,-73.8633419,,1004269911149631,,,,1219392319914046,,
136,822930793411589,"White Plains Hospital Center Senior Services",0,,,41.0268792,-73.7684933,,1219895967348154,,,,1296826628696565,,
137,842942376713289,"Housing Works Bookstore",597618074285488,,,40.7246035,-73.9965755,,1087963110530465,,,,1114497745056986,,
138,804057057119015,"Afya Foundation-East End Temple Drop-off Location",0,,,40.7346314,-73.9838982,,781635249160488,1227678808451178,,,921615263478420,,
139,816579010817691,"CHCA Office",0,,,39.275844,-84.336463,,,,,,853100164196458,,
140,820079646127619,"Alvita Care NYC",0,,,40.7484925,-73.994179,,1117909921413991,,,,1255409607074380,,
141,852293889017110,"Yonkers Public Library Books for the Homebound",0,,,40.9512358,-73.8447472,,947738296953580,,,,878446572580480,,
142,856148060589960,"R.A.I.N. Main Office",0,,,40.8462872,-73.8622825,,1148416635808831,"996322951902597,940025562772061",,,918692831732158,,
143,859141805722434,"Hudson Guild Chelsea Office",1233682522628423,,,40.749552,-74.0022443,,"865954914172697,729819108773188",899500549900682,,,942751698425590,,
144,822331158504021,"Community Agency for Senior Citizens-Staten Island",863413279185453,,,40.6407076,-74.0759545,,790614912591800,1275388700455417,,,817358056301206,,
145,821866257930703,"American Folk Art Museum UWS",0,,,40.7733734,-73.9813713,,805296494431920,,recABYU0oowSORV6c,,648957681065521,,
146,868173819991970,"Hospital for Special Surgery Manhattan",905326057005957,,,40.7649072,-73.9523764,,1117862118489759,633080382906941,,,821308674757836,,
147,808841261990530,"NJ EASE Office",1285007907849469,,,40.719663,-73.997675,,972931787567383,1243737524074413,,,955971997114080,,
148,809668888101005,"AUDIENT Alliance National Network",962280279701770,,,0,0,,924734829034925,,,,,,
149,811993746307414,"The LOFT",0,,,41.0219612,-73.7469398,,1195859334581308,,,,1249188438419399,,
150,816439873471849,"Martha Stewart Center for Living",653858712031954,,,40.7894548,-73.9529315,,795976065646204,,,,764219819443912,,
151,826388597666813,"Union Settlement NORC Office",1299477450227528,,,40.7908462,-73.9417915,,1093514835093035,884751042759569,,,1200903674125150,,
152,827522877641090,845,0,,,40.7986473,-73.9709334,,,,,,,,
153,831035079823150,"Met Council Office",0,,,40.704281,-74.0082994,,1201612629668842,,,,959807357164828,,
154,833764577839227,"Pick Up Please Office",597471677543523,,,40.719663,-73.997675,,1148763515532091,1106245770992949,,,955971997114080,,
155,833962289133245,"Henry Street Settlement Community Consultation Center",621590574293234,,,40.7126971,-73.9857348,,1088474245342263,,,,763388653566204,,
156,837281295142369,"VOLS Office",884859466341687,,,40.7172951,-74.0069891,,1275995476418606,,,,596852445446641,,
157,844364176767799,"PAWS NY Brooklyn",0,,,40.7170066,-73.9656929,,625862012895176,975745652465415,,,782487894656894,,
158,846027636612970,"Financial Assistance Catholic Charities",926566663310552,,,40.7574566,-73.9639978,,1210604705530709,,,,602099679392461,,
159,865426227582678,"Crossing Guards Manhattan ",0,,,40.719663,-73.997675,,704949997839383,,,,955971997114080,,
160,869437581538741,"Jewish Community Council of Greater Coney Island-Brooklyn",779805618185923,,,40.5726933,-74.0021478,,"794585631951212,1018060635204154,640786236939343",634124727626866,,,1265939883950171,,
161,873928710407607,"Geriatric Medicine and Aging Hospital",0,,,40.7711407,-73.9532045,,1234039610795036,,,,,,
162,877157950664285,"Union Settlement-Harlem",1299477450227528,,,40.719663,-73.997675,,872321036841122,898842574081173,,,955971997114080,,
163,820918468700428,"Weissman Wellness Office",0,,,40.7119961,-73.945347,,950276035895444,,,,1269840653789809,,
164,825513025459215,"United Way Office",818742815221035,,,40.7507849,-73.9736235,,615964161627015,620329918682642,,,887138243308767,,
165,852109915963296,"New Lifestyles Office",0,,,40.719663,-73.997675,,831874032989869,877585854903181,,,955971997114080,,
166,853916208626878,"True Care Office",0,,,40.6433634,-73.9786195,,594018446651717,772606633064356,,,602878125631566,,
167,857035800051204,"Louise's Pantry Bronx",0,,,40.8563985,-73.894757,,949462934858305,897066353998421,,,630263169086865,,
168,870043042179331,"Our Place",0,,,40.9486427,-73.8767077,,1316829671731361,,,,595551308665055,,
169,886902586328624,"Sprain Brook Manor Rehab",0,,,40.9863641,-73.8370182,,555360101755779,,,,1261034736784408,,
170,834032044609787,"The Hunter Helpers Program Office",751944288598510,,,40.7685437,-73.9651879,,1201583321309745,1203914228897654,,,839756563631856,,
171,835561221232887,"Circle of Care Services",0,,,40.7071762,-74.0124086,,1183723038408337,,,,1010477474135532,,
172,861782754706397,"Kittay Apartments Bronx",1139716345357307,,,40.8671167,-73.9032604,,913396682142826,1310023550797193,,,989558810317987,,
173,868815111389782,"Whole Foods Delivery Manhattan",0,,,40.719663,-73.997675,,1164298769266153,,,,955971997114080,,
174,872398746454681,"DOROT Manhattan Office",617910248814061,,,40.7870587,-73.9750254,,"1277861289893407,981054173201560,763195561288221,785872654393780,841770812775273,1273182297854066,883656468114296,639799693024150",,rectgZKffHPydsa3H,,801326186311509,,
175,897643592121126,"MedicAlert + Alzheimer's Association Safe Return",569329087549179,,,0,0,,938471611520186,1102095914534738,,,1103152850074440,,
176,899071973154010,"Fairway Upper West Side",0,,,40.7805902,-73.9817197,,813571933574740,,,,799244999157208,,
177,840514443838048,"Food Bank of New York City Main Office",0,,,40.7063146,-74.0131748,,645544600514407,1124701643634907,,,1122669078685279,,
178,844869320287985,"Hamilton Senior Center Manhattan",955701872476582,,,40.7790046,-73.979766,,882346709521737,,,,1017082442313506,,
179,863631366142452,"ReServe Office",862733777014880,,,40.719663,-73.997675,,1281730196978815,,,,955971997114080,,
180,869389940541744,"National Academy of Elder Law Attorneys Office",0,,,40.719663,-73.997675,,1274529813061855,,,,955971997114080,,
181,875912436812678,"Legal/Social Work Elder Abuse Program Queens",1120414012913334,,,40.729156,-73.8584415,,1181459905867825,1291266517439032,,,837955669488262,,
182,885139826284948,"Goodwill East Side",0,,,40.7608429,-73.9606466,,1026935441827200,1271659781029151,,,1301442294583716,,
183,893798353548387,"VNA of Hudson Valley",0,,,41.0608888,-73.8407117,,567213982298655,,,,614626305837322,,
184,853419853061010,"Arc XVI Fort Washington Senior Center",0,,,40.8451229,-73.9392062,,1277195383446930,,recKArA85NBfdQw1r,,822773848376509,,
185,871621197584579,"VITA Office",866922804423485,,,40.719663,-73.997675,,779339624756606,,,,955971997114080,,
186,873392952410289,"The Bridge Agency",1010051820509387,,,40.8025117,-73.9669362,,1228720163916900,1177629503271093,,,1095778859933494,,
187,877936089968720,"Center for Lifelong Growth UWS",0,,,40.7940232,-73.9632109,,606049236910724,,,,737996291058701,,
188,875669545190590,"Response Link Office",0,,,40.7724752,-73.9503399,,1066497640168657,785603674665239,,,1214115814960131,,
189,885499464622138,"Cedar Manor",0,,,41.1769915,-73.8630865,,609793261225466,,,,1164534763609607,,
190,890827911702233,"Tarrytown Hall Care Center",0,,,41.0811528,-73.861892,,,,,,987078843480161,,
191,908721052299840,"Sage Midtown Manhattan",1202577900100445,,,40.7466546,-73.9933453,,"1107517585026390,768475791536235","1115763759666645,793906394089229",,,832417426130330,,
192,913322059376271,"The Hebrew Free Loan Society Office",0,,,40.751077,-73.9738022,,901066062072005,1148987270703767,,,1267855411228292,,
193,859169562955552,"Outreach Rehab Office",0,,,40.7601436,-73.9642857,,1246286170157896,1339305463724338,,,850115772007273,,
194,877628105870328,"Yorktown Office",0,,,41.2776903,-73.788877,,922757855773332,,,,847439785754434,,
195,878704477770045,"East West Connection Agency",828071650886930,,,40.5797463,-74.9605468,,665503981563170,939101045497128,,,1111497187226592,,
196,882287285471115,"Westchester Center for Independent and Assisted Living",0,,,40.9415246,-73.8772294,,888464653240277,,,,1220633018170310,,
197,888854290272678,"Vintage Thrift Gramercy",1308744014948525,,,40.7384699,-73.9836457,,708105628538848,704422111355233,,,752947842269144,,
198,895924441806597,"Council Lifetime Learning Office",1.1075707699639045e33,,,40.7794675,-73.9830259,,"1120678962480781,684649127511411,1256447779430795",635073118879437,,,578674092200867,,
199,910630569868465,"The New York Hearing Center-Midtown",0,,,40.7486284,-73.9815011,,581914407561626,835085424564704,,,673413315824519,,
200,888888544923370,"JFCS of Northern NJ-Fair Lawn Office",0,,,40.9375508,-74.1376216,,633851278206049,1279540666574393,,,883799361816161,,
201,886567588768031,"Senior Planet Chelsea",0,,,40.7448724,-73.9931412,,554169331480949,815702977901696,,,856424619809452,,
202,905133685569773,"Mount Kisco Office",0,,,41.219554,-73.71613,,977076741986226,,,,,,
203,910746664162625,"The Pearl I. Barlow Center for Memory Evaluation and Treatment Center",839836754614022,,,40.7450693,-73.9800222,,1158111918004941,"715581660281221,1095470244940987",,,901434766768659,,
204,923381638372747,"Goodwill West Side",0,,,40.7784549,-73.980581,,1026935441827200,1269690421322012,,,1178259965284475,,
205,939299622916747,"Adult Protective Services Office",1170967448889542,,,40.735627,-73.988013,,934360842753019,,,,793738293658951,,
206,881068512672918,"RSVP Office",979198190503025,,,40.719663,-73.997675,,1018081544703448,,,,955971997114080,,
207,898060688155114,"Sage Brooklyn",1202577900100445,,,40.6879864,-73.9799972,,563583310600900,661681652540333,,,1190531990465047,,
208,930752220056199,"New York Foundation Enriched Housing Office",929828904477796,,,40.7829289,-73.9494375,,1013782748708059,,,,680116778539120,,
209,933697276528216,"Happy Donations NYC",0,,,40.719663,-73.997675,,696303730765573,,,,955971997114080,,
210,946288203514985,"Lighthouse Guild Agency",0,,,40.7742841,-73.9880461,,"900904477977142,666160522829291,1243533464065853",1285440487842205,,,944853548512062,,
211,946791668288409,"Mavencare Home Care NY Office",0,,,40.7411848,-73.991313,,609974918602397,,,,757931812959756,,
212,950726685241038,"The Osborn",0,,,40.9725488,-73.6996066,,962155089881489,,,,887752054714624,,
213,911424615909247,"Single Stop Office",923109536688861,,,40.8179058,-73.9405286,,"1028031377774559,1181805580091514",,,,735399226687979,,
214,942007178258006,"Institute on Aging San Francisco",1073669140612840,,,37.780993,-122.457943,,745033395868348,,,,,,
215,940815650068994,"Premier Home Health Care Manhattan Office",0,,,40.702714,-74.0107237,,1189124293941749,,,,1000297805548472,,
216,946178298934653,"Selfhelp Queens North Office",685028959367331,,,40.7519477,-73.8200806,,1129429578221496,1110385106581796,,,1186852906133131,,
217,923407231856048,"Catholic Charities-Manhattan",926566663310552,,,40.7574566,-73.9639978,,,1221606486953953,,,602099679392461,,
218,948455875120520,"Atria Rye Brook",0,,,41.053102,-73.690632,,,,,,801458314881573,,
219,911852996585160,"Flex Physical Therapy UWS",0,,,40.7853214,-73.9798349,,1189113237018242,1265504111539942,recQQhgwNwLVjwXVj,,778774751786400,,
220,915020233717830,"Lombardo's Pizza Bar and Restaurant",0,,,40.9930214,-73.745958,,1289293867285970,,,,1248372735543186,,
221,930952826074629,"Jasa Bronx Clinic",1120414012913334,,,40.8608114,-73.8902149,,1143448616335218,881475226834229,,,1189642823268469,,
222,940883776000708,"Lenox Hill Neighborhood House-Center",798994226105048,,,40.7667544,-73.9571182,,"1229260991425809,679316262960090","890624610636670,773442820298867",,,748216179850947,,
223,947395760541559,"TDF Accessibility Programs Office",0,,,0,0,,1100048981347799,,,,787774618734432,,
224,956575318109690,"Masbia Queens",0,,,40.7322289,-73.8496196,,"906157907788099,1292864991200757",,,,750099343938839,,
225,959690639051365,"Positive Aging NY",0,,,41.0263402,-73.7911471,,1130960987420980,,,,943075390128812,,
226,962950961587263,"Elderly Crime Victims Resource Center Office",616711493480804,,,40.7140988,-74.0039841,,1161880617276485,,,,1091732696488921,,
227,971129219715911,"Isabella Case Management",0,,,40.8549943,-73.9274742,,943189738216572,,,,607808160572943,,
228,972498722527865,"Penn South Social Services Agency",0,,,40.7487147,-73.9992178,,727746373311059,1128762562999775,,,1240598614624115,,
229,914639497723129,"New York Public Library-Bloomingdale Branch",839827527698327,,,40.795851,-73.9676214,,"1131541525040619,1269213379965326",844662141026928,,,1123406869458717,,
230,939569956066267,"NYC Department of Finance Office",561510100662143,,,40.7087357,-74.0081164,,1176517928581962,658514823314988,,,1299601042782651,,
231,945515049623119,"We Can Do It! Office",0,,,40.6522977,-74.0103947,,1050345041596883,1100778712020935,,,879008158678370,,
232,950895428982391,"CIDNY Manhattan",0,,,40.7343078,-73.9912247,,1149681920153095,,,,832033576342207,,
233,966914096445103,"Queens Community House Forest Hills Case Management",854389601348497,,,40.7140624,-73.832397,,616027474928772,976858699590362,,,1103807924148960,,
234,977989706294434,"NYC Free Clinic Office",749515156693869,,,40.7409512,-73.999838,,582404943926369,,,,781763572705473,,
235,989050730800226,"Hearing Loss Association Office",0,,,38.989236,-77.0967193,,643787403693759,,,,1321767444873757,,
236,991296539851115,"Mobilization for Justice Manhattan Clinic",1303487432314987,,,40.7083827,-74.0072011,,1130400742595772,"1098802239046056,1114624706826072",,,908100479316573,,
237,995358483188297,"Manhattan House Calls",0,,,40.719663,-73.997675,,833727414513307,,,,955971997114080,,
238,939450579574156,"Karpoff Affiliates, Inc. Office",0,,,40.7385212,-73.9836901,,1124735196190933,880907948910042,,,1078904808920976,,
239,942582231528336,"Paper Moon Moves Office",0,,,40.6728504,-73.9787083,,691036117584255,741375174756650,,,1242402592239497,,
240,970995924679302,"Coming of Age NYC/PSS Circle of Care",790488986368738,,,40.7071762,-74.0124086,,637789679159005,,,,1010477474135532,,
241,985856060520089,"Odyssey House NYC",6.693441508477678e32,,,40.719663,-73.997675,,1264727299118618,,,,955971997114080,,
242,992945602125128,"IMpact Life Transition Advocates Office",0,,,40.719663,-73.997675,,909531836331413,,,,955971997114080,,
243,999971802515358,"Fishman Law",0,,,41.0306594,-73.7732563,,913190098910503,,,,962646064578603,,
244,951758667159396,"80th Street Residence",0,,,40.7721804,-73.9507055,,1203465702858620,,,,829061882805759,,
245,966012842323076,"AUDIENT Alliance National Network ",0,,,40.7528964,-73.9722049,,924734829034925,,,,903689394971972,,
246,966285085008728,"Dyckman Senior Center Manhattan",929828904477796,,,40.8608699,-73.9221964,,953356879922443,,,,1190797607853353,,
247,973643028272240,"Project C.A.R.T Office",0,,,40.7405083,-73.9783778,,980285269693573,,,,1284694775771908,,
248,989921779096527,"Geriatric House Call Dentistry Office",0,,,40.719663,-73.997675,,868979199647621,1128164531867061,,,955971997114080,,
249,986076717425676,"Marlena Books Headquarters",0,,,40.719663,-73.997675,,1064626459240121,1155073786008965,,,955971997114080,,
250,1003476291614985,"PEARLS Office",1293251363005201,,,40.719663,-73.997675,,939872204189528,1272040877370789,,,955971997114080,,
251,1010634024590412,"Lifeforce in Later Years Office",0,,,40.7999209,-73.9683102,,1168278429230315,1061408127915601,,,855652185568285,,
252,1015547238627252,"600 Tuckahoe Road",0,,,40.9533353,-73.8457199,,,,,,,,
253,964118028121674,"Active Retirement Center Campus",1176924668005479,,,40.710198,-74.0062058,,898653528603878,572117183428877,,,1278447139829997,,
254,975370975593398,"Mount Kisco, NY",0,,,41.190523,-73.7361094,,775129095879874,,,,582545310816360,,
255,981831536235200,"Center for Learning and Living-Manhattan",858525228630280,,,40.7652685,-73.9570652,,851324842437370,919197563606308,,,622167940280483,,
256,993272119067025,"Boxwood Alliance",0,,,41.1938791,-73.7258089,,1066263438111374,,,,774945924769791,,
257,991953561809803,"Bleakley, Platt & Schmidt",0,,,41.0322418,-73.7733424,,923999939595541,,,,1180401435417081,,
258,1008148626311184,"Quest Office",945435139317598,,,40.7055173,-74.01385,,962519259999999,1101665190861984,,,630528720951878,,
259,1035489378662589,"The New York Hearing Center-Upper West Side",0,,,40.7735375,-73.9788857,,581914407561626,835085424564704,,,832734633665814,,
260,1054819580338538,"Project Find Office",0,,,40.7790046,-73.979766,,1336043764520811,,,,1192682334798639,,
261,1056584562594595,Riverwalk-Riverdale,1098856670939907,,,40.9107775,-73.9095738,,855181083326261,973161705216288,,,1012648205679109,,
262,1058511955425821,"Stein Center Programs",1120914840730487,,,40.7383602,-73.9827664,,810458996121715,,,,,,
263,1054665442712864,"Columbia Medical School Office",749199819507130,,,40.8409549,-73.941459,,1194049297811679,,,,1182065464688915,,
264,1058744444148098,"Daily Administrative Solutions Office",0,,,40.9308768,-73.7617136,,601657347342653,665110288049818,,,1294610371622695,,
265,1063151263507542,"Lott Residence East Side",0,,,40.7952876,-73.9499656,,1210602165678189,834192182171667,,,604072454289404,,
266,1080980334266782,"Alix Keast Upper West Side",0,,,40.7797456,-73.9773223,,960228911790200,1188424253705335,,,1194305757951964,,
267,1089674865749089,"Crossing Guards Manhattan",639979342463408,,,40.7571537,-73.9865311,,704949997839383,,,,,,
268,1099836114714012,"The Clinton Street Center",0,,,41.1332567,-73.7904433,,885401816965082,,,,1288185441349354,,
269,1036419362268281,"Yorkville Housing Works",597618074285488,,,40.7801939,-73.9495982,,1124251611013743,667365177600160,,,1279987758701538,,
270,1037868065351449,"Samantha Fox Care Consulting Office",0,,,40.7456431,-73.9785512,,1193042326559791,,,,1289820726513689,,
271,1037743861488348,"Safety Net Office",979989167470485,,,40.6443823,-73.976047,,659031193612793,655472709820870,,,926390961461476,,
272,1052374636658866,"EAC Network Long Island",0,,,40.7083367,-73.6185279,,879052282924602,,,,764317711663479,,
273,1064932718237290,"Delta Dental",0,,,37.7126972,-97.2240364,,1313190884786760,,,,,,
274,1071945974194624,"NAC Manhattan Office",1116923382250023,,,40.7445977,-73.9904622,,629288783459442,1194428081935565,,,1091475809166190,,
275,1096776868392058,"Willow Towers",0,,,40.8982956,-73.7787659,,853792809831330,,,,1261921802141482,,
276,1107802251236437,"Carter Burden Network Headquarters",940635116893810,,,40.7682331,-73.954495,,"1005399245667696,600135038960416",798812684314671,,,674674961934925,,
277,1049459846753377,"Disposaphobia NY",0,,,40.719663,-73.997675,,1172430819139792,,,,955971997114080,,
278,1051614563216668,"Caregiver Teleconnection Office",1191651445445275,,,0,0,,965316533810564,,,,882306548267846,,
279,1063973581790538,"Community Hearing Services",0,,,40.9533353,-73.8457199,,1279542912229691,,,,"1139790966644919,601535167627038",,
280,1072852792815959,"Judith Moves You Office",0,,,40.719663,-73.997675,,550639993191378,,,,955971997114080,,
281,1069598601708938,"Medicare & Medicaid Advisory Group Office",0,,,40.7669467,-73.9821805,,913495435605886,,,,817631397701148,,
282,1082100405543162,"HIICAP Office",1145686227283146,,,0,0,,979347986563061,,,,906381450313598,,
283,1089297167490921,"Afya Foundation-Plaza Jewish Community Chapel Drop-off Site",0,,,40.7907814,-73.9730625,,781635249160488,1270418240534661,,,605021630756792,,
284,1103716398703959,"Gilda's Club Westchester",0,,,41.0270575,-73.7664019,,642763383791055,,,,778372507284518,,
285,1104382866223370,"Bronx Friendship House",999420709614592,,,40.8220116,-73.8274327,,914898037644455,,,,966920271985196,,
286,1102077225658071,"Sundays at JASA-John Jay College",999420709614592,,,40.7707237,-73.9892342,,1290801142635486,1236355961989830,,,804402164230756,,
287,1084416941008565,"Met Council on Housing Manhattan",0,,,40.7042874,-74.0082519,,1129703563295415,1330912186990853,,,1307457409975490,,
288,1106732953211611,"Pagano Senior Care",0,,,41.0204084,-73.7596911,,875704457864885,,,,1119674791786092,,
289,1107417462373750,"Memory Tree Morningside Gardens",0,,,40.8130711,-73.9592414,,1253214211998009,,,,1292165976548285,,
290,1117572001125322,"Suffolk County Office for the Aging Headquarters",0,,,40.9204485,-72.7169716,,1196279776508741,,,,1115099782867957,,
291,1123801795689517,"Food Pantry Upper West Side",859311048444171,,,40.7889677,-73.9772637,,625928363836513,,,,834669419954225,,
292,1127756116271969,"The Doula Program to Accompany and Comfort Office",0,,,40.7063185,-74.0108414,,1298860129512584,751780588775178,,,623025679459970,,
293,1128494164406363,"The Knolls",0,,,41.0683635,-73.7832622,,984041615403419,,,,1235319083099402,,
294,1134526234412344,"Dumont Center for Rehabilitation and Nursing Care",0,,,40.8901168,-73.7869008,,568545427254648,,,,1285864870627527,,
295,1095482821243247,"COHME Home Care Manhattan",0,,,40.7052529,-74.0140703,,962527824453291,,recnu05uGHHsltRS6,,605647152971027,,
296,1100086303377827,"Adult Day Health Adult Day Health Care Program Manhattan",0,,,40.7998425,-73.9647745,,1271796728231431,,,,1146787602507424,,
297,1106986722041635,"Morningside House",0,,,40.7063491,-74.0125217,,662053153004389,,,,1274441827605514,,
298,1105921769856571,"HealthFirst Office",1200357989239929,,,40.719663,-73.997675,,958602435127606,,,,955971997114080,,
299,1122972654216380,"City Bar Justice Center Office",0,,,40.755472,-73.982205,,1267289355151812,,,,919181871279364,,
300,1081850790467536,"Catholic Charities-NJ",926566663310552,,,40.7703675,-74.1822762,,869422949711757,1141004778938528,,,1147007275983955,,
301,1108016909440840,"Institute on Aging San Francisco ",0,,,37.7810038,-122.4577153,,1277328910091903,,,,1229897682694786,,
302,1114814832620769,"Queens Community House-Forest Hills Senior Center",854389601348497,,,40.7362691,-73.8501306,,1300575732417581,1303878558683146,,,1234611396518606,,
303,1123588260654177,"Atria Woodlands",0,,,41.0220209,-73.8430289,,671609118944117,,,,850173185057092,,
304,1142218786400766,"Victoria Home",0,,,41.1643381,-73.8656592,,886820512656238,,,,1142969600429861,,
305,1147679058222084,"Adult Day Health Care Upper West Side",1352629276802338,,,40.8046334,-73.9632133,,1241027936084868,,,,845216248501461,,
306,1107817196477166,"Delta Dental ",0,,,40.719663,-73.997675,,1313190884786760,,,,955971997114080,,
307,1111106653182998,"Customize Care Office",0,,,40.889421,-73.9109517,,1125337914533231,,,,856554447121881,,
308,1115949119526284,"New York State Comission for the Blind Office",0,,,40.7071228,-74.0077715,,1213543511414419,,,,1120080866522434,,
309,1125554127221753,"Covia Well Connected",828585188982858,,,37.7813731,-122.4237643,,"1175389810228890,848330157196899",,,,,,
310,1141607429542130,"Greenwich House Main Office",796026064627918,,,40.7457349,-73.9923305,,"1257451204059413,1061291481423864",,,,624190706027718,,
311,1148870007460109,"Council Lifetime Learning Office",0,,,40.7794675,-73.9830259,,"1210357886180971,1167152764322572",,,,578674092200867,,
312,1155415203679238,"Cash Assistance Program Office",772084713101318,,,40.719663,-73.997675,,1144146399031754,,,,955971997114080,,
313,1099317967582149,"Keane & Beane, PC",0,,,41.034884,-73.764757,,1141987247581089,670222060062384,,,927057286685811,,
314,1103190764094168,"Golden Steps Coop Brooklyn",0,,,40.6520088,-74.0047416,,,,,,1131567227207238,,
315,1118541487585825,"Senior Law Manhattan",0,,,40.7482436,-73.9851073,,1066778325819186,643939118374039,,,797408101854424,,
316,1121951781319959,"Hebrew Free Burial Society Office",0,,,40.7066092,-74.0062499,,1213146706836283,,,,1263798668853558,,
317,1130738975518235,"Care Program Upper East Side",798994226105048,,,40.7670764,-73.9577261,,679316262960090,,,,870634650166451,,
318,1147876269467435,"Ambulance Patient Finder Line",969674882530844,,,40.719663,-73.997675,,1202003470308319,,,,955971997114080,,
319,1162363007529652,"Sage Staten Island",1202577900100445,,,40.6379743,-74.0763216,,849677296161738,730769750668575,,,782678684051099,,
320,1106697137818738,"University Avenue Assisted Living-Bronx",1167195867217331,,,40.867355,-73.9021559,,1307397345920479,1183181876248255,,,1278000830181039,,
321,1113813987371256,"Legal Services NYC Access Line Office",0,,,40.7172951,-74.0069891,,761065170179610,823557749703671,,,596852445446641,,
322,1137483523662416,"Caregivers to the Elderly Support Group Meeting Place",845367419385279,,,0,0,,782938477439239,,,,612772622129876,,
323,1158380146793847," BronxWorks Living Room/Safe Haven",0,,,40.8168196,-73.8894092,,858534666460865,,,,638499661887758,,
324,1160536297048294,WILC,0,,,41.0339141,-73.7700331,,769342040158147,,,,598262043782165,,
325,1166797562585238,"The Bridge Residential Intake Office",1010051820509387,,,0,0,,899826943268588,,,,,,
326,1167257649168566,"God's Love We Deliver Office",0,,,40.725573,-74.0036553,,753881045700684,,,,1143989115790991,,
327,1170860144791913,"Andrus on Hudson",0,,,40.9843455,-73.8808191,,859261006217011,,,,893995760956054,,
328,1176851912000413,"Manhattan District Attorney's Main Office",0,,,40.7156671,-74.0011638,,813642754389966,,,,977604944365977,,
329,1177121134721965,"HomeBase Program Office",772084713101318,,,40.719663,-73.997675,,1304456190659449,,,,955971997114080,,
330,1141433948429319,"Jeanne Ferrando, LCSW-R",0,,,41.070078,-73.861534,,604112759450921,,,,926744447907375,,
331,1143936190869986,"Stein Center Manhattan",1120914840730487,,,40.7383602,-73.9827664,,"1087602119004985,810458996121715",1183567675629524,,,813070462647210,,
332,1139260310168743,"Key Food Upper West Side",0,,,40.7874953,-73.9754212,,1153985667300935,,,,806047141290257,,
333,1147974066065082,"Andrew Heiskell Braille & Talking Books Library Building",839827527698327,,,40.7404616,-73.9932485,,1133756352370821,,,,1192735875389618,,
334,1152994247095026,"Neighborhood SHOPP Bronx",0,,,40.8215463,-73.8921954,,1132626808243715,1127353776044997,,,797128467607799,,
335,1150100255705864,"NYC Elder Abuse Center Office",1175135443135866,,,40.719663,-73.997675,,1171987185469806,,,,955971997114080,,
336,1169797880045188,"Elder Care Homecare",0,,,40.9956153,-73.7858897,,636494090986396,,,,837588754394116,,
337,1181479920064319,"City Opera Thrift Shop East Side",0,,,40.7382451,-73.9821598,,662290598368678,,,,1007514442673709,,
338,1183790945873310,"Catholic Charities of NJ",926566663310552,,,40.7574566,-73.9639978,,"1251567811006539,869422949711757",,,,602099679392461,,
339,1184118056054726,"Caregivers Service Manhattan",934037382230510,,,40.7697411,-73.9530951,,998308295059947,,,,603479366025556,,
340,1135581096644740,"New Jewish Home-Manhattan",1139716345357307,,,40.7993655,-73.9641317,,,,,,886615612567520,,
341,1144398158669122,"Yorktown Heights Office",0,,,41.2687096,-73.7821463,,,,,,,,
342,1148019099417774,"Project Ezra Agency",0,,,40.7159317,-73.9882507,,1125800033041427,1128068817208098,,,1214465988869811,,
343,1149107541488250,"Alzheimer's Foundation of America Office",1288044313088279,,,40.7472088,-73.9967762,,"911239601037044,1263717593353769,1266327100220698,861551426759241",,,,1218004392452674,,
344,1151472742702655,"SilverBills Office",0,,,40.719663,-73.997675,,1073254137157159,923113257284691,,,955971997114080,,
345,1160980520314476,"Plaza Jewish Community Chapel UWS",0,,,40.7907814,-73.9730625,,1243032936986058,902460920708433,,,605021630756792,,
346,1166676498043777,"Project SenioRepair Office",635776676599442,,,40.704281,-74.0082994,,587434079564381,1289623818455761,,,959807357164828,,
347,1184828226037831,"Westchester Residential Opportunities, Inc.",0,,,41.0223808,-73.7600588,,1264560206833433,,,,"897137425209527,1038598330856856",,
348,1188093828878366,"845 North Broadway White Plains, NY 10603",604657247231584,,,41.0610081,-73.7665007,,,,,,,,
349,1200511949065685,"Louise's Pantry Lower East Side",606948154846233,,,40.7236569,-73.9842426,,949462934858305,929563793253978,,,1231159379435176,,
350,1139545407768271,"White Plains Meals on Wheels",0,,,41.0264843,-73.7471454,,,810366456414473,,,,,
351,1144855430685302,"City Harvest Office",1086901533394341,,,40.746545,-73.9849822,,"844405703995740,650697226576535",,,,771969867372890,,
352,1160596143883349,"Calvary Hospice Queens",1284114710934347,,,40.8480084,-73.8440486,,866884149771351,,,,1160936336950978,,
353,1187778800902833,"Project Find Office",1.2731533547562526e33,,,40.7580844,-73.991228,,756466054258839,1239814947010570,,,637888517639066,,
354,1197800617706787,"Call Eric Manhattan Office",0,,,40.719663,-73.997675,,,1209027815338439,,,955971997114080,,
355,1207137421921677,"Center for Hearing & Communication Office",0,,,40.7063491,-74.0125217,,777878575131334,,,,1274441827605514,,
356,1154290583346128,"Caring Kind Office",911697756644478,,,40.750439,-73.977111,,"895920199651907,939447269767314",,,,,,
357,1151559479926531,"Addiction Institute Centers",1296714727444270,,,40.7528964,-73.9722049,,775642325697758,,,,903689394971972,,
358,1166381524871046,"Medical Car Service Staten Island",1010580337283883,,,40.6407076,-74.0759545,,918399294039588,1275388700455417,,,817358056301206,,
359,1166518935930177,"Safe Horizon Office",1.2082191252778034e33,,,40.7140988,-74.0039841,,1254802786086522,,,,1091732696488921,,
360,1175734426903224,"Riverstone-Washington Heights",0,,,40.8392417,-73.9447535,,1247905330263033,998355037014838,,,1175754335304989,,
361,1177711895016605,"Masbia Flatbush",0,,,40.6240702,-73.9652911,,"906157907788099,1292864991200757",,,,661159058078744,,
362,1191099419278865,"Hazel Brooks Center Brooklyn",933567985906060,,,40.6389946,-73.958689,,1206865188941552,,,,1238210936535122,,
363,1201838337524842,"Leave No Footprint Office",0,,,40.719663,-73.997675,,645796006367089,725610732320337,,,955971997114080,,
364,1157439885702996,"United Jewish Council Lower East Side",1308744014948525,,,40.7151396,-73.9828151,,"589265063758770,886872882742418,1261123757547801",884793010254084,,,620719617398611,,
365,1160012504793222,"Adapt Administrative Office",827409210356131,,,40.7071228,-74.0077715,,"1299966772928860,1063459575997908",,,,1120080866522434,,
366,1161911553506036,"Helping Hands for the Disabled of NYC Office",0,,,40.762569,-73.8314318,,1090068972800338,,,,1117525606695978,,
367,1159983662799826,"Community Service Society Office",979198190503025,,,40.7498006,-73.9749831,,"997384431827648,571465129413363",1304543105871368,,,645570276764240,,
368,1163679734692717,"CityMeals Midtown",0,,,40.7502156,-73.9764544,,"1261701871106227,1113339829525706",,,,1137742849854717,,
369,1181165896671487,"Telephone Support Groups Office",617910248814061,,,40.7870587,-73.9750254,,"565820535663626,961129687220865",,,,801326186311509,,
370,1188943911061184,"LawHelp/NY Office",0,,,40.719663,-73.997675,,585192826161477,,,,955971997114080,,
371,1195785480679036,"Legal /Social Work Elder Abuse Program Manhattan",1120414012913334,,,40.7540233,-73.9913332,,1181459905867825,,,,1192151437389051,,
372,1211776986922808,"Metropolitan Museum of Art Programs",0,,,40.7791655,-73.9629278,,"962264766401803,814314701238234","1282117879952079,1148592964811433",,,1119370970092112,,
373,1217859763170475,"Anti-Eviction Housing Office Manhattan & Brooklyn",1303487432314987,,,40.7083827,-74.0072011,,1109362982511146,,,,908100479316573,,
374,1218399656701078,"Lehman Village Senior Center",0,,,40.7956419,-73.9475777,,607491556351537,1122307373790275,,,981402837243283,,
375,1224882677936208,"Savage Organizing Office",0,,,40.719663,-73.997675,,1282890056251489,,,,955971997114080,,
376,1174600638087225,"Encore Community Services Midtown",624854977524323,,,40.7608943,-73.9853275,,"1240661118232957,1256987994244947,644357335957019,976238227660785",,,,854091596400759,,
377,1174244436297654,ArtsWestchester,0,,,41.031625,-73.7660599,,881897740733384,,,,942572808453646,,
378,1184649940863336,"Healthy Hearing Office",0,,,36.8421925,-76.0637802,,888456338601707,,,,1093634927600387,,
379,1205659672479780,"It Takes A Village",0,,,35.0883494,-78.9459745,,627733787707334,,,,689585651637569,,
380,1220414976459611,"Bill Payer Program Office",616711493480804,,,40.719663,-73.997675,,818597024974992,,,,955971997114080,,
381,1231301497613719,"Bayberry Care Center",0,,,40.8917473,-73.7843271,,650409579169663,,,,1145767121937612,,
382,1183283614648112,"Doctors on Call Administrative Office",0,,,40.6165502,-73.9790084,,1060912758231579,,,,759884246631330,,
383,1182178575582068,"Service Program for Older People-Manhattan",0,,,40.7885893,-73.9735478,,"807781285922296,852591308861622","942456039150589,1210336578480685",,,739310310737872,,
384,1217088351329439,"Atria Woodlands",0,,,41.0222098,-73.8428764,,,1199805634236579,,,,,
385,1230520200734896,"Delbello, Donnellan, Weingarten, Wise & Weiderkehr, LLP",0,,,41.0322418,-73.7733424,,789430554421597,,,,1180401435417081,,
386,1230715117809400,"Access-A-Ride Office",1236593696201843,,,40.7528964,-73.9722049,,1134697933733017,,,,903689394971972,,
387,1242406932516432,"Canaan Senior Center Harlem",813326452731155,,,40.8013301,-73.9464985,,1164530061458458,1138151168298067,,,596106332273010,,
388,1248664167371555,"Integrity Senior Services Staten Island",0,,,40.573117,-74.107581,,"970737263301233,1061527495042237",1269788011979782,,,957040097525162,,
389,1190507733701014,"The Rubin Museum",0,,,40.7400671,-73.9977244,,933790200082155,,,,951335486669329,,
390,1189230999153059,"Westchester County Office for Women",0,,,41.0284035,-73.7670038,,800282930025758,,,,792649016550767,,
391,1192388551570388,"New York Foundation for Senior Citizens Office",929828904477796,,,40.7130634,-74.0082771,,"1068692989341970,653008088512697,901976308727761,1087394420679981",,,,1179892637853969,,
392,1192824025321946,"Seivah Westchester",832749361091520,,,41.0168296,-73.7630925,,"1129939373114087,1136963003142257,608815884165791",748856120890280,,,1177660468233004,,
393,1196705040717547,"Senior Employment Services Office",616711493480804,,,40.7140988,-74.0039841,,1213036607295521,825609315730847,,,1091732696488921,,
394,1204325968125772,"Connect2 Office",608478388100121,,,40.5726933,-74.0021478,,821251992076057,,,,1265939883950171,,
395,1204123759895785,"Housing Court Answers Office",0,,,40.7168692,-74.0014591,,1196577705674533,,,,599284764119306,,
396,1211465314122001,"White Plains Office",0,,,41.039739,-73.7851543,,922757855773332,,,,1325364228156121,,
397,1213309130919325,"University Eye Center",663407514167044,,,40.7544216,-73.9822267,,800813664639683,652216213050197,,,1089194803070930,,
398,1211523035276152,"Visiting Neighbors Office",1298442639123920,,,40.7278058,-73.9979716,,"1197386597844620,1283877760992968",1218728178643114,,,1165366254470860,,
399,1212546812400921,"Selfhelp Agency",0,,,40.753615,-73.9920415,,"911782926228446,875627478974399,949339326889314",708463359521157,,,684462579679665,,
400,1218778159588031,"RiseBoro Main Office",0,,,40.6990615,-73.9353618,,590472117584228,771100219665746,,,674423877161880,,
401,1230252559669970,"VillageCare at 46 & Ten Midtown",0,,,40.7621996,-73.9942485,,655477513239628,1080773681073798,,,611758640912280,,
402,1244833784703696,Wartburg,0,,,40.9205741,-73.8131261,,647229496315746,,,,1125985473489689,,
403,1219070393872677,"Falk Surgical Upper East Side",0,,,40.7627228,-73.9601642,,1259922028949843,,,,601682727064892,,
404,1222768164489701,"New Jewish Home Bronx",1139716345357307,,,40.8528373,-73.837068,,1191469119701878,,,,746735676880343,,
405,1231170403100009,"Q-Center Queens",1222173390556225,,,40.7519244,-73.9254192,,658507157960815,646567923763056,,,1103782762263375,,
406,1232602786078763,"Fresh Direct NYC",0,,,40.719663,-73.997675,,689279594966959,,,,955971997114080,,
407,1249390679707688,Riverspring-Riverdale,1098856670939907,,,40.9101458,-73.9092235,,941809353186859,1114193737893828,,,1210173169151479,,
408,1216253083316171,"William Sound Company",0,,,40.719663,-73.997675,,756247067188042,636527751646019,,,955971997114080,,
409,1272585219567649,"Caregiver Support Group Brooklyn",952776080974799,,,40.6671202,-73.9903948,,964120808558816,539933937712273,,,1179412541609232,,
410,1275743859932320,"Health Advocates for Older People Main Office",1219582025275697,,,40.7524167,-73.973565,,"922570750485340,1244030712574348,767046013165180",,,,886253808274487,,
411,1217106007448556,"Cancer Support Team",0,,,41.0104618,-73.6980168,,1183381495912211,,,,585239224439197,,
412,1237678811845669,"Elizabeth Haub School of Law at Pace University",0,,,41.0405604,-73.764303,,992957231897387,,,,605176752598412,,
413,1236472041118282,"Museum of Modern Art Programs",774788058651420,,,40.7613258,-73.9774014,,1151487379935411,884626270698487,,,908312139806035,,
414,1239316263027446,"Services Now for Adult Persons Office",645730693279777,,,40.7338299,-73.7313694,,828222998498950,1115977126881176,,,1324143794665987,,
415,1241863926704431,"New Jewish Home Manhattan",1139716345357307,,,40.7998425,-73.9647745,,1191469119701878,,,,1146787602507424,,
416,1257004067187467,"One Stop Senior Services",0,,,40.810813,-73.9636955,,,,,,1224855212067444,,
417,1274139224824287,"Care NYC Support Groups",826319322006898,,,40.7528964,-73.9722049,,1199367281369419,,,,903689394971972,,
418,1279609127127414,"Adult Day Health Programs and Services",0,,,41.1729103,-73.8442496,,875403809995974,,,,1099501997135733,,
419,1234704131763768,LIRIC,0,,,40.9271278,-73.7864435,,828175339740471,,,,1176478764744540,,
420,1239085525202840,"Project Open Lincoln Towers",1175507688064901,,,40.7774246,-73.98562,,955408734267425,625168410337055,,,626060393964911,,
421,1246575464969417,"Visions Manhattan",0,,,40.7255205,-74.009383,,942162107607836,880970653449227,,,1261367709410468,,
422,1263931920202948,"SUNY College of Optometry Clinic",1250690553852125,,,40.7580844,-73.991228,,1275555407513349,,,,637888517639066,,
423,1259822172928040,"ReServe New York/New Jersey Regional Contact",862733777014880,,,40.719663,-73.997675,,1281730196978815,,,,955971997114080,,
424,1267609685792488,"Lenox Hill Agency",0,,,40.7670764,-73.9577261,,"623429254053582,1181470161325641,1143432217558001,846787360945082,889290953225814","824923452953158,773442820298867",,,870634650166451,,
425,1284971768096785,"Sage Vets Office",1202577900100445,,,40.7466546,-73.9933453,,1314379582554480,,,,832417426130330,,
426,1287995287654906,"Victims Assistance Services of Westchester",0,,,41.068397,-73.8096493,,766329040815982,,,,1087856289552940,,
427,1296107497326788,"Jennifer Fisher, JD, LCSW",0,,,40.9336633,-73.7585396,,976697714672744,,,,1163745181618681,,
428,1296402255519103,"JFCS of Northern NJ-Teaneck Office",0,,,40.9018531,-73.9988423,,633851278206049,1279540666574393,,,800229404655809,,
429,1299900450585072,"Yorktown Rehabilitation and Nursing Center",0,,,41.2830249,-73.8485831,,867670607442498,,,,1254923980737856,,
430,1242042751047449,"VNSNY Bereavement Office",1293251363005201,,,40.719663,-73.997675,,"1271204612274121,1275378296799320",1194647666288235,,,955971997114080,,
431,1245210302703235,"Carnegie East House Residences",0,,,40.7836821,-73.9471414,,884103943459443,,,,1129861482680271,,
432,1259360515070465,"Bergen County Division of Senior Services Office",0,,,40.8767196,-74.0429561,,1339230793187649,,,,861724245335885,,
433,1258249932231072,Jasa-Brooklyn,1120414012913334,,,40.632485,-73.8906954,,,974256483571744,,,807450221279396,,
434,1266255552527006,"Family Eldercare Office",1118604789741776,,,30.3343235,-97.6796533,,805036440045659,,,,897747246265054,,
435,1268369769901803,"Cabrini Eldercare",0,,,41.008042,-73.880222,,943177373790677,,,,1162553500902394,,
436,1272415379532080,"Goddard Riverside Uptown",923109536688861,,,40.8179058,-73.9405286,,788811858745327,830342116391284,,,735399226687979,,
437,1292974982287152,"Adult & Elder Services Offices",1278015369614430,,,40.7528964,-73.9722049,,545735833730297,,,,903689394971972,,
438,1304705637644101,"Leonard Covello Senior Center East Side",940635116893810,,,40.7921489,-73.9403541,,"949896723161271,870520437466443","1218080962607558,1242364634099244",,,1136857024778610,,
439,1312695594585888,"JCC Upper West Side",724662437776878,,,40.7811304,-73.9802022,,"912087287310872,886002483710503,1090033410306276,836152397915732",906124092352617,,,809698659267160,,
440,1310893124940771,"Center for Elder Justice",0,,,40.9101458,-73.9092235,,1232107467923366,,,,1210173169151479,,
441,1252212274923057,"Lincoln Square Neighborhood Center Office",0,,,40.7745077,-73.9868137,,979828351062250,843743119320527,,,978693219788877,,
442,1256762981767588,"Live On New York Office",943089562081135,,,40.7563858,-73.9813901,,816733464389484,,,,1263202967869983,,
443,1283815184009985,"New York Ombudsman Office",0,,,0,0,,1211921186340565,621305926010699,,,,,
444,1286900051399672,"CAPE Queens Office",1275780377457872,,,40.76029,-73.723105,,"832016928597027,1272518728948067",1010063553152090,,,885146589556516,,
445,1287623235982960,"Mott Street Senior Center Programs",929828904477796,,,40.7205904,-73.9956567,,857712296030293,614687616236690,,,1116536142852359,,
446,1302546941077364,"Heights and Hills Main Office",0,,,40.6924059,-73.9860842,,1229958599094903,,,,1243005692710265,,
447,1313811808076784,"Luncheon Club & Senior Program East Side",940635116893810,,,40.7158448,-73.9832935,,1264942737150905,941524237713523,,,1238038149570670,,
448,1319826188144530,"Lupatkin Law",0,,,41.2017982,-73.787843,,,,,,1273025247046572,,
449,1257787394804960,"Brookdale Senior Living-Manhattan",852104162002742,,,40.7175664,-74.0144634,,1145416997676199,598927822888483,,,573694384064844,,
450,1287825669530980,"Live Connected Agency",0,,,40.719663,-73.997675,,1235328331316271,,,,955971997114080,,
451,1290928693472525,"NYU College of Dentistry Office",749515156693869,,,40.7379433,-73.9782142,,1157865767601907,,,,1089588257205887,,
452,1295208390762416,"Lang Hand Therapy Practice",0,,,40.7802357,-73.9846328,,833727885336698,565565747582650,,,820587146869371,,
453,1327394866894620,"New York Public Library-Riverside Branch",839827527698327,,,40.7743645,-73.9845136,,"1131541525040619,1269213379965326","844662141026928,762835641076831",,,1313979703298136,,
454,1333755199774058,"Gramatan Village",0,,,40.9400483,-73.8328317,,1189715623722716,,,,962627788475931,,
455,1275169097954443,"St Vincent's Hospital Westchester",0,,,40.9886651,-73.7093495,,"632484546642124,814910120354434,767280654488239",,,,1301817408777665,,
456,1287424250598133,"Interim Healthcare",0,,,41.0320206,-73.7673531,,1268019740852547,,,,1283192987057603,,
457,1322880754340982,"Westchester Jewish Community Services",0,,,41.0610081,-73.7665007,,"1260362559796750,945752833105371,852387643645016",,,,974738233198185,,
458,1333065740668009,"Family & Children's Association Long Island",0,,,40.7072131,-73.6242251,,1294162364398922,,,,1178537728854068,,
459,1336866946964704,"The Law Offices of Robin Freimann",0,,,41.0507124,-73.7718256,,1240262444839301,,,,612094659530356,,
460,1294037843987563,"ComForCare Office",0,,,40.7480715,-73.98458,,963966019084060,,,,612259377994849,,
461,1304313664181912,"JASA One Stop Office",1120414012913334,,,40.810813,-73.9636955,,"1288178816196946,991868453384068",887655578966616,,,1256625945825770,,
462,1330788678148804,"Lions Club Office",0,,,40.2645741,-74.8189216,,598860279139020,,,,597207415067761,,
463,1340761742480108,"BronxWorks Living Room/Safe Haven",850652418731445,,,40.8168273,-73.8895596,,858534666460865,,,,,,
