ID,id,address_1,address_2,city,state_province,postal_code,region,country,attention,address_type,location_id,address_services,organization_id,flag
1,545540211397517,"1200 Lexington Avenue",,"New York",NY,10028,,,,,836161221805129,1155279974732807,,
2,573694384064844,"455 North End Avenue",,"New York",NY,10282,,,,,1257787394804960,1145416997676199,,
3,579009248830866,"125 Maiden Lane ","Unit 5B"," New York",NY,10038,,,,,,,,
4,599284764119306,"111 Centre Street",225,"New York",NY,10013,,,,,1204123759895785,1196577705674533,,
5,602711727748826,"241 West 72nd Street",,"New York",NY,10023,,,,,,,,
6,582545310816360,"95 Radio Circle",,"Mount Kisco",NY,10549,,USA,,physical_address,975370975593398,775129095879874,,
7,587992724534286,"215 W. 79th Street",,"New York",NY,10024,,,,,641065871140037,1232906762960956,,
8,595261279230167,"33 West 60th Street",,"New York","NY ",10023,,,,,724810729843820,,,
9,603479366025556,"420 East 76th Street",,"New York",NY,10021,,,,,1184118056054726,998308295059947,,
10,605176752598412,"78 North Broadway",,"White Plains",NY,10603,,USA,,,1237678811845669,992957231897387,,
11,607808160572943,"515 Audubon Ave.",,,,,,,,,971129219715911,943189738216572,,
12,612919070135370,"275 Seventh Avenue",,"New York",NY,10001,,,,,818262783520902,954772931172809,,
13,614626305837322,"540 White Plains Rd, Suite 300",,Tarrytown,NY,10591,,USA,,,893798353548387,567213982298655,,
14,612259377994849,"347 Fifth Avenue",,"New York",NY,10016,,,,,1294037843987563,963966019084060,,
15,577107505117577,"44 Court Street",,Brooklyn,NY,11201,,,,,792071260366274,1181459905867825,,
16,578674092200867,"241 West 72nd Street",,"New York","NY ",10023,,,,,"895924441806597,1148870007460109","1120678962480781,684649127511411,1256447779430795,1210357886180971,1167152764322572",,
17,590336741343629,"2 Court Square",,,,,,,,,558690609490523,1163635550532432,,
18,597207415067761,"PO Box 7263",," West Trenton",NJ,08628,,,,,1330788678148804,598860279139020,,
19,602099679392461,"1011 First Avenue","11th Floor","New York",NY,10022,,,,,"1183790945873310,923407231856048,846027636612970","1251567811006539,869422949711757,1210604705530709",,
20,611758640912280,"510 West 46th Street",,"New York",NY,10036,,,,,1230252559669970,655477513239628,,
21,628686801587812,"16 Court Street","Suite 1007 ",Brooklyn,NY,11241,,,,,,,,
22,573513539141503,"475 Park Avenue South ","26th Floor","New York",NY,10016,,,,,,,,
23,591809196286438,"170 Hamilton Avenue",,"White Plains",NY,10601,,USA,,physical_address,634201937942078,855849468189520,,
24,594156609883427,"510 Hempstead Turnpike ",#202,"West Hempstead",NY,11552,,,,,,,,
25,595551308665055,"347 Saw Mill River Road",,Yonkers,NY,10710,USA,,,,870043042179331,1316829671731361,,
26,595749747913839,"PO Box 21009 ",,Lansing,MI,48909,,,,,,,,
27,601449092544402,"130 East 59th Street",,"New York",NY,10022,,,,,,,,
28,604072454289404,"1261 5th Avenue",,"New York",NY,10029,,,,,1063151263507542,1210602165678189,,
29,623025679459970,"55 Exchange Place","Suite 402 ","New York",NY,10005,,,,,1127756116271969,1298860129512584,,
30,632131108799146,"2381 Hylan Blvd.  ","Suite 13","Staten Island",NY,10306,,,,,,,,
31,635530773317848,"1844 Second Avenue",,"New York","NY ",10128,,,,,,,,
32,578640321156224,"505 E. 70th Street  ",,"New York",NY,10065,,,,,,,,
33,596106332273010,"10 Lenox Avenue",,,,,,,,,1242406932516432,1164530061458458,,
34,598262043782165,"200 Hamilton Avenue, 2nd Floor",,"White Plains",NY,10601,,USA,,,1160536297048294,769342040158147,,
35,596852445446641,"40 Worth Street","Suite 820","New York",NY,10013-2904,,,,,"1113813987371256,837281295142369","761065170179610,1275995476418606",,
36,602878125631566,"117 Church Avenue",,,,,,,,,853916208626878,594018446651717,,
37,622167940280483,"411 East 68th Street",,"New York",NY,10065,,,,,981831536235200,851324842437370,,
38,630263169086865,"406 East 184th Street",,Bronx,"New York",10458,,,,,857035800051204,949462934858305,,
39,585239224439197,"2900 Westchester Avenue Suite 103",,Purchase,NY,10577,,USA,,physical_address,1217106007448556,1183381495912211,,
40,594630229760890,"43-31 39th Street",,Sunnyside,NY,11104,,,,,622250378340276,647550805587258,,
41,612772622129876,"30 7th Avenue",,,,,,,,,1137483523662416,782938477439239,,
42,626847442110275,"1011 First Avenue ","6th Floor","New York",NY,10022,,,,,,,,
43,638499661887758,"800 Barretto Street",,Bronx,NY,10474,,,,,1158380146793847,858534666460865,,
44,645849572598766,"6700 Washington Avenue South ",,"Eden Prairie",MN,55344,,,,,,,,
45,650308176658513,"59-45 161st Street",,,,,,,,,697325863842099,1335605835095590,,
46,601535167627038,"359 East Main Street, Suite 4B",,"Mount Kisco",NY,10549,,USA,,,1063973581790538,1279542912229691,,
47,601682727064892,"167 East 64th Street",,,,,,,,,1219070393872677,1259922028949843,,
48,605021630756792,"630 Amsterdam Avenue",,"New York",NY,10024,,,,,"1089297167490921,1160980520314476","781635249160488,1243032936986058",,
49,620719617398611,"500 Grand Street",#A,"New York",NY,10002,,,,,"1157439885702996,628786748725608","589265063758770,886872882742418,1261123757547801,1145192161147031",,
50,624190706027718,"122 W 27th Street","6th Floor","New York",NY,10001,,,,,1141607429542130,"1257451204059413,1061291481423864",,
51,630528720951878,"25 Broadway",,"New York",NY,10004,,,,,1008148626311184,962519259999999,,
52,646770628651997,"202 Graham Avenue",,Brooklyn,NY,11206,,,,,635813831197877,914898037644455,,
53,648957681065521,"2 Lincoln Square","Columbus Avenue between 65th and 66th Streets","New York",NY,10023,,,,,821866257930703,805296494431920,,
54,661159058078744,"1372 Coney Island Avenue",,Brooklyn,NY,11230,,,,,1177711895016605,"906157907788099,1292864991200757",,
55,665389818270888,"100 Veterans Memorial Highway ",,Hauppauge,NY,"11788-0099 ",,,,,,,,
56,610509037893528,"88 Bartley Road",,Flanders,NJ,07836,,,,,579397005327715,1241384952119080,,
57,605647152971027,"11 Broadway, Suite 1031",,"New York",NY,10004,,,,,1095482821243247,962527824453291,,
58,612094659530356,"30 Glenn Street Suite 201",,"White Plains",NY,10603,,USA,,physical_address,1336866946964704,1240262444839301,,
59,626060393964911,"180 West End Avenue","# 1G","New York",NY,10023,,,,,1239085525202840,955408734267425,,
60,625217225921257,"117 Church Avenue ",,Brooklyn,NY,11218,,,,,,,,
61,637894105340496,"260 Madison Avenue","2nd Floor","New York",NY,10016,,,,,,,,
62,645755098700973,"845 Palmer Avenue",,Mamaroneck,NY,10543,,,,,584879719461953,,,
63,673413315824519,"36A East 36th Street","Suite 101","New York",NY,10019,,,,,910630569868465,581914407561626,,
64,674423877161880,"565 Bushwick Avenue",,Brooklyn,NY,11206,,,,,1218778159588031,590472117584228,,
65,616749597638397,"65 Broadway ","17th Floor ","New York",NY,10006,,,,,,,,
66,617201724489692,"P.O. Box 497",,"New York",NY,10025,,,,,561148298054173,"619599394487325,998151779788022",,
67,624304836218464,"260 East 188th Street",,Bronx,NY,10458,,,,,796422747447092,1217330047058019,,
68,637888517639066,"331 West 42nd Street",,"New York",NY,10036,,,,,"1187778800902833,1263931920202948","756466054258839,1275555407513349",,
69,638314726443942,"30 7th Avenue ","7th Floor","New York",NY,10011,,,,,,,,
70,645570276764240,"633 Third Avenue","10th FL","New York",NY,10017,,,,,1159983662799826,"997384431827648,571465129413363",,
71,641926164859656,"471 Columbus Avenue",,"New York","NY ",10024,,,,,589921434208803,934871686281700,,
72,653767757476457,"120 West 76th Street",,"New York","NY ",10023,,,,,800115976710076,"809594915267226,1187283213398988",,
73,656996929758680,"120 East 56th Street"," Suite 730","New York",NY,10022,,,,,795409117118026,818978369006787,,
74,680116778539120,"225 East 93rd Street",,"New York",NY,10128,,,,,930752220056199,1013782748708059,,
75,689585651637569,"P.O. Box 8304",," Sleepy Hollow",NY,10591,,USA,,"Postal Address",1205659672479780,627733787707334,,
76,662076769689609,"244 Fifth Avenue","Suite R290","New York",NY,10001,,,,,784800444976062,969903806987451,,
77,674674961934925,"415 East 73rd Street",,"New York",NY,10021,,,,,1107802251236437,"1005399245667696,600135038960416",,
78,684462579679665,"520 Eighth Avenue",,"New York",NY,10018,,,,,1212546812400921,"911782926228446,875627478974399,949339326889314",,
79,691589829347999,"19 West 34th Street","12th Floor","New York",NY,10001,,,,,,,,
80,698985500691261,"220 East 23rd Street  ","Suite #303 ","New York",NY,10010,,,,,,,,
81,729434234446855,"1246 Burke Avenue",,Bronx,NY,10469,,,,,793686677552335,1203292248460080,,
82,743224050994340,"180 Union Avenue",,"New Rochelle",NY,10801,,USA,,physical_address,612641952771609,1306565861277471,,
83,759884246631330,"6010 Bay Parkway","9th Floor",Brooklyn,NY,11204,,,,,1183283614648112,1060912758231579,,
84,762608704158308,"263 West 38th Street","4th Floor","New York",NY,10018,,,,,770656150916599,577119440814762,,
85,769461493908132,"777 Tenth Avenue",,"New York",NY,10019,,,,,769619830768525,"856540091057743,671412938379029",,
86,765414916137459,"300 Amsterdam Avenue",,"New York",NY,10023,,,,,684977594666329,1193482002785457,,
87,737996291058701,"400 Central Park West",,"New York","NY ",10025,,,,,877936089968720,606049236910724,,
88,739310310737872,"302 West 91st Street",,,,,,,,,1182178575582068,"807781285922296,852591308861622",,
89,736904742039377,"333 W. 86th St.",,,,,,,,,637170263897132,"1337566135151280,1066576182461485",,
90,750099343938839,"105-47 64th Road",,"Forest Hills",NY,11375,,,,,956575318109690,"906157907788099,1292864991200757",,
91,746735676880343,"1200 Waters Place",,Bronx,NY,10461,,,,,"563591937429247,668507123937673,1222768164489701","1271796728231431,1119307712797759,1191469119701878",,
92,750862521072521,"1485 Teaneck Road ",,Teaneck,NJ,07666,,,,,,,,
93,757931812959756,"16 West 22nd Street","Suite 206","New York",NY,10010,,,,,946791668288409,609974918602397,,
94,763388653566204,"40 Montgomery Street",,"New York",NY,10002,,,,,833962289133245,1088474245342263,,
95,771969867372890,"6 East 32nd Street"," 5th FL","New York",NY,10016,,,,,1144855430685302,"844405703995740,650697226576535",,
96,778372507284518,"80 Maple Avenue",,"White Plains",NY,10601,,USA,,physical_address,1103716398703959,642763383791055,,
97,735399226687979,"140 West 140th Street",,"New York",NY,10030,,,,,"1272415379532080,911424615909247","788811858745327,1028031377774559,1181805580091514",,
98,764219819443912,"1440 Madison Avenue",,"New York",NY,10029,,,,,816439873471849,795976065646204,,
99,770115698354896,"2037A Utica Avenue",,Brooklyn,NY,11234,,,,,811911463255568,1150675709722671,,
100,764317711663479,"50 Clinton Street","Suite 107",Hempstead,NY,11550,,,,,1052374636658866,879052282924602,,
101,807450221279396,"9502 Seaview Avenue",,Brooklyn,NY,11236,,,,,1258249932231072,,,
102,806047141290257,"530 Amsterdam Avenue",,"New York",NY,10024,,,,,1139260310168743,1153985667300935,,
103,809698659267160,"334 Amsterdam Avenue",,"New York",NY,10023,,,,,1312695594585888,"912087287310872,886002483710503,1090033410306276,836152397915732",,
104,812773064685081,"135 West 50th Street",,"New York",NY,10020,,,,,817064838386609,"1077341156049049,1299306345384176,1242765695469023,1201897000634222",,
105,748216179850947,"343 East 70th Street",,"New York",NY,10021,,,,,940883776000708,"1229260991425809,679316262960090",,
106,752947842269144,"286 Third Avenue",,"New York",NY,10010,,,,,888854290272678,708105628538848,,
107,774945924769791,"The Boxwood Alliance 487 E. Main Street, #218",,"Mount Kisco",NY,10549,,USA,,postal_address,993272119067025,1066263438111374,,
108,781763572705473,"230 West 17th Street",," New York"," NY ",10011,,,,,977989706294434,582404943926369,,
109,782678684051099,"25 Victory Boulevard",,"Staten Island",NY,10301,,,,,1162363007529652,849677296161738,,
110,782487894656894,"240 Kent Avenue","2nd Fl.",Brooklyn,NY,11249,,,,,844364176767799,625862012895176,,
111,778774751786400,"278 West 81st Street","Ground Floor","New York",NY,10024,,,,,911852996585160,1189113237018242,,
112,787663585182344,"266 West 37th Street","3rd Floor","New York",NY,10018,,,,,820448574506867,678225650204200,,
113,787774618734432,"520 Eighth Avenue, Suite 801 ",,"New York",NY,10018-5652,,,,,947395760541559,1100048981347799,,
114,792649016550767,"112 East Post Road, Room 110B",,"White Plains",NY,10601,,USA,,postal_address,1189230999153059,800282930025758,,
115,793738293658951,"109 East 16th Street",,"New York",NY,10003,,,,,939299622916747,934360842753019,,
116,791643835374655,"6 East 16th Street","Room 905","New York",NY,10011,,,,,595166933017642,1109860177950808,,
117,791071239488080," 630 Amsterdam Avenue",,"New York",NY,10025,,,,,,,,
118,800166269666778,"2930 Wallace Avenue",,,,,,,,,803273260259437,"1217784119892646,895897993855079",,
119,801458314881573,"1200 King Street",,"Rye Brook",NY,10573,,USA,,physical_address,948455875120520,,,
120,821308674757836,"535 East 70th Street","2nd Floor","New York","NY ",10021,,,,,868173819991970,1117862118489759,,
121,837588754394116,"9A Richbell Road",,Scarsdale,NY,10583,,USA,,physical_address,1169797880045188,636494090986396,,
122,839756563631856,"695 Park Avenue",,"New York",NY,10065,,,,,"561779752822615,834032044609787","1344051922955818,1201583321309745",,
123,781905515728114,"6700 Washington Avenue South",,,,,,,,,665908716099324,1317272831608081,,
124,801326186311509,"171 West 85th Street",,"New York",NY,10024,,,,,"872398746454681,568630493978873,1181165896671487","1277861289893407,981054173201560,763195561288221,785872654393780,841770812775273,1273182297854066,883656468114296,639799693024150,1253214211998009,565820535663626,961129687220865",,
125,803567692842410,"201 East 28th Street  ","Suite 2A","New York",NY,10016,,,,,,,,
126,804073917662168,"500 Grand Street",#A,"New York",NY,10002,,,,,,,,
127,838672917666836,"135 West 23rd Street",,"New York",NY,10011,,,,,646191607198056,975722961848397,,
128,843904248007659,"40 Worth Street","Suite 606","New York",NY,10013,,,,,,,,
129,786908643544870,"204 East 23rd Street ",,"New York",NY,10010,,,,,,,,
130,810313990766352,"547 Saw Mill River Road, Suite 1A",,Ardsley,NY,10502,,,,,803531070000649,1304713068423859,,
131,813070462647210,"204 East 23rd Street",,,,,,,,,1143936190869986,"1087602119004985,810458996121715",,
132,832734633665814,"9 West 67th Street",,"New York",NY,10023,,,,,1035489378662589,581914407561626,,
133,837025004887312,"245 Main Street",,"White Plains",NY,10601,,,,physical_address,572437871684762,1201949109066241,,
134,850115772007273,"1110 2nd Avenue","Suite 302","New York",NY,10022,,,,,859169562955552,1246286170157896,,
135,856424619809452,"127 West 25th Street",,"New York",NY,10001,,,,,886567588768031,554169331480949,,
136,797128467607799,"953 Southern Blvd.","Suite 203 ",Bronx,NY,10459,,,,,1152994247095026,1132626808243715,,
137,797408101854424,"350 Fifth Avenue","Suite 4310","New York",NY,10118,,,,,1118541487585825,1066778325819186,,
138,799244999157208,"2131 Broadway",,,,,,,,,899071973154010,813571933574740,,
139,804402164230756,"524 West 59th Street",,"New York",NY,10019,,,,,1102077225658071,1290801142635486,,
140,800229404655809,"1485 Teaneck Road",,,,,,,,,1296402255519103,633851278206049,,
141,817631397701148,"3 Columbus Circle","15th Floor","New York",NY,10019,,,,,1069598601708938,913495435605886,,
142,820587146869371,"263 West End Avenue",,"New York",NY,10023,,,,,1295208390762416,833727885336698,,
143,829212944630098,"1393 York Avenue ","between 74th and 75th Street","New York",NY,10021,,,,,,,,
144,832844799388495,"First Avenue at 16th Street",,"New York",NY,10003,,,,,603106980746590,855881833579163,,
145,834669419954225,"263 West 86th Street","Basement Level","New York","NY ",10024,,,,,"1123801795689517,657741214801376","625928363836513,960617758768539",,
146,853100164196458,"400 East Fordham Road",,,,,,,,,816579010817691,,,
147,860382997496341,"33 W 42nd Street",,"New York",NY,10036,,,,,,,,
148,829061882805759,"430 E. 80th Street",,"New York",NY,10075,,,,,951758667159396,1203465702858620,,
149,832417426130330,"305 Seventh Ave"," 15th Floor ","New York",NY,10001,,,,,"908721052299840,1284971768096785","1107517585026390,768475791536235,1314379582554480",,
150,837955669488262,"97-77 Queens Boulevard",,"Rego Park",NY,11374,,,,,"639449550055644,875912436812678","1142867068784057,1181459905867825",,
151,844870703971777,"290 Lenox Avenue","3rd Floor","New York",NY,10027,,,,,,,,
152,857723289913679,"127 West 43rd Street",,"New York",NY,10036,,,,,675922632877409,833708272440161,,
153,870634650166451,"331 East 70th Street",,"New York",NY,10021,,,,,"1130738975518235,1267609685792488","679316262960090,623429254053582,1181470161325641,1143432217558001,846787360945082,889290953225814",,
154,885146589556516,"59-28 Little Neck Parkway",,"Little Neck",NY,11362,,,,,1286900051399672,"832016928597027,1272518728948067",,
155,817358056301206,"56 Bay Street",,"Staten Island",NY,10301,,,,,"822331158504021,1166381524871046","790614912591800,918399294039588",,
156,822773848376509,"4111 Broadway",,"New York",NY,10033,,,,,853419853061010,1277195383446930,,
157,832033576342207,"841 Broadway, Suite 301",,"New York",NY,10003,,,,,950895428982391,1149681920153095,,
158,837527037278398,"247 East 53rd Street",,"New York",NY,10022,,,,,672103964786737,1118447497322381,,
159,847361755068773,"3 Lafayette Avenue",,Brooklyn,NY,11217,,,,,787524437126525,981185274806868,,
160,845216248501461,"1060 Amsterdam Avenue",,"New York",NY,10025,,,,,1147679058222084,1241027936084868,,
161,855652185568285,"PO Box 250402",,"New York",NY,10025,,,,,1010634024590412,1168278429230315,,
162,855425134285440,"197 East Broadway",,"New York",NY,10002,,,,,587659450099991,1095268672603108,,
163,878446572580480,"1500 Central Park Avenue",,Yonkers,NY,10710,,USA,,postal_address,852293889017110,947738296953580,,
164,894106505982532,"2001 Palmer Avenue "," Suite 202",Larchmont,NY,10538,,,,,,,,
165,833553668427052,"280 Cherry Street",,"New York",NY,10002,,,,,769404684056511,633842245420873,,
166,847028817303528,"100 William Street","6th Floor ","New York",NY,10038,,,,,,,,
167,847439785754434,"2051 Baldwin Road",,"Yorktown Heights",NY,10598,,USA,,physical_address,877628105870328,922757855773332,,
168,854091596400759,"220 West 49th Street",,"New York",NY,10019,,,,,1174600638087225,"1240661118232957,1256987994244947,644357335957019,976238227660785",,
169,879008158678370,"4202 Third Avenue","Floor 2",Brooklyn,NY,11232,,,,,945515049623119,1050345041596883,,
170,886615612567520,"120 W 106th Street",,"New York",NY,10025,,,,,1135581096644740,,,
171,887752054714624,"101 Theall Road",,Rye,NY,10580,,USA,,,950726685241038,962155089881489,,
172,897137425209527,"470 Mamaroneck Avenue Suite 410",,"White Plains",NY,10605,,USA,,physical_address,1184828226037831,1264560206833433,,
173,898285584260360,"45 Park Avenue",,"Bay Shore",NY,11706,,,,,775481941389324,1287996806329445,,
174,834699787535348,"27-40 Hoyt Avenue South ",,Astoria,"NY ",11102,,,,,,,,
175,875509892141765,"P.O. Box 602 ","Radio City Station","New York",NY,10101,,,,,,,,
176,890365070778148,"275 Madison Avenue","Suite 1428","New York",NY,10016,,,,,734935691540835,848009902936406,,
177,850173185057092,"1017 Saw Mill River Road",,Ardsley,NY,10502,,USA,,physical_address,1123588260654177,671609118944117,,
178,856554447121881,"600 West 239th Street","Suite 2M ",Riverdale,NY,10463,,,,,1111106653182998,1125337914533231,,
179,861724245335885,"One Bergen County Plaza",,,,,,,,,1259360515070465,1339230793187649,,
180,866773471296980,"90 Cherry Lane",,Hicksville,NY,11801,,,,,783848140153866,,,
181,883799361816161,"17-10 River Road",,"Fair Lawn",NJ,07410,,,,,888888544923370,633851278206049,,
182,903689394971972,"Multiple Locations",,,NY,,,,,,"1230715117809400,1151559479926531,1292974982287152,773444037771857,632376271916875,966012842323076,1274139224824287,575196641931899","1134697933733017,775642325697758,545735833730297,1078136644723933,906057727348234,924734829034925,1199367281369419,1102354014602661,972456099283146",,
183,906381450313598,"2 Empire State Plaza",,,,,,,,,1082100405543162,979347986563061,,
184,910876179960688,"50 Broadway",,Hawthorne,NY,10532,,USA,,physical_address,,,,
185,871504572165130,"2 Empire State Plaza ",,Albany,NY,12223-1251,,,,,,,,
186,877827575879592,"20 West 74th Street",,"New York",NY,10023,,,,,602072727071999,1141581628840504,,
187,882306548267846,"8637 Fredericksburg Road",,,,,,,,,1051614563216668,965316533810564,,
188,887138243308767,"205 East 42nd Street",,"New York",NY,10017,,,,,825513025459215,615964161627015,,
189,893995760956054,"185 Old Broadway",,Hastings-on-Hudson,NY,10706,,USA,,physical_address,1170860144791913,859261006217011,,
190,897747246265054,"1700 Rutherford Lane",,Austin,TX,78754,,,,,1266255552527006,805036440045659,,
191,901732987431796,"5901 Palisade Avenue",,Riverdale,NY,10471,,,,,,,,
192,911353104260518,"5961 Palisade Avenue",,Riverdale,NY,10471,,USA,,physical_address,750855764478228,886515346401663,,
193,915209375968760,"168 Canal Street ","6 Floor","New York",NY,10013,,,,,,,,
194,867920365625108,"201 E. 28th Street","Suite 2A","New York","NY ",10016,,,,,,,,
195,889256005961394,"19 West 34th St.","Room 1200","New York",NY,10001,,,,,641535127444773,"970737263301233,1250503896058178,1061527495042237",,
196,925661966666383,"347 East 18th Street",,"New York",NY,10003,,,,,775481781223730,733448619284596,,
197,931200445267608,"57 Willoughby Street "," 4th Floor",Brooklyn,NY,11201,,,,,,,,
198,937477360910589,"290 Broad Street",,,,,,,,,780043939873286,980311998959939,,
199,883017278918660,"296 Ninth Avenue",," New York","NY ",10001,,,,,606626868016020,660358273093811,,
200,886253808274487,"708 Third Avenue",,"New York",NY,10017,,,,,1275743859932320,"922570750485340,1244030712574348,767046013165180",,
201,901434766768659,"145 East 32nd Street","2nd Floor","New York",NY,10016,,,,,"590969374564289,910746664162625","1197949764240847,1158111918004941",,
202,908100479316573,"100 William Street","6th Floor","New York",NY,10038,,,,,"731499650370942,1217859763170475,991296539851115","1109362982511146,1109362982511146,1130400742595772",,
203,926390961461476,"419 Church Avenue",,Brooklyn,NY,11218,,,,,1037743861488348,659031193612793,,
204,941572564673458,"1109 5th Avenue",,"New York",NY,10128,,,,,682665557016520,1080670404294287,,
205,892545852895694,"PO Box 515381 ",#42919," Los Angeles",CA,90051-6681,,,,,,,,
206,908312139806035,"11 W. 53rd Street",,"New York",NY,10019,,,,,1236472041118282,1151487379935411,,
207,921615263478420,"245 East 17th Street",,"New York",NY,10003,,,,,804057057119015,781635249160488,,
208,927057286685811,"445 Hamilton Avenue, Suite 1500",,"White Plains",NY,10601,,,,physical_address,1099317967582149,1141987247581089,,
209,926744447907375,"191 South Broadway",,Tarrytown,NY,10591,,USA,,,1141433948429319,604112759450921,,
210,901328021315746,"220 East 23rd Street",,,,,,,,,802703984103645,1322256938475139,,
211,919181871279364,"42 West 44th Street",,"New York",NY,10036,,,,,"1122972654216380,633941962467510","1267289355151812,730910006564936",,
212,918692831732158,"811 Morris Park Avenue",,Bronx,NY,10462,,,,,856148060589960,1148416635808831,,
213,966920271985196,"2705 Schley Avenue",,Bronx,NY,10465,,,,,1104382866223370,914898037644455,,
214,912776048789701,"27 Barrow Street","3rd Floor ","New York",NY,10014,,,,,813001250720900,1111403286785411,,
215,937132598457152,"2185 N. California Blvd.","Suite 215 ","South Walnut Creek",CA,94596,,,,,614547283019295,"848330157196899,1175389810228890",,
216,964533507086015,"255 West 36th Street","Suite 407","New York",NY,10018,,,,,688527544165377,1189113237018242,,
217,962646064578603,"11 Martine Avenue, 12th Floor",,"White Plains",NY,10606,,USA,,physical_address,999971802515358,913190098910503,,
218,973009618604275,"425 Kings Highway",,Brooklyn,NY,11223,,,,,651750585468528,749277676940883,,
219,981402837243283,"1641 Madison Avenue",,"New York",NY,10029,,,,,1218399656701078,607491556351537,,
220,938726130825910,"5961 Palisade Ave. ",,Riverdale,NY,10471,,,,,,,,
221,944821096154911,"515 Audubon Ave.  ",,"New York",NY,10040,,,,,,,,
222,951335486669329,"150 West 17th Street",," New York",NY,10011,,,,,1190507733701014,933790200082155,,
223,955971997114080,"Not Available",,,,,,,,,"597549259313335,1147876269467435,1220414976459611,1197800617706787,736016270382730,600230560300467,1155415203679238,798958013337792,865426227582678,1107817196477166,1049459846753377,824412171835980,607967634449454,791468515442281,1232602786078763,989921779096527,933697276528216,1105921769856571,1177121134721965,755062833700735,992945602125128,1072852792815959,1188943911061184,1201838337524842,1287825669530980,995358483188297,986076717425676,869389940541744,852109915963296,638454976676154,808841261990530,1150100255705864,659515711242608,809957051513971,985856060520089,610396374228362,545582499398807,1003476291614985,833764577839227,1259822172928040,863631366142452,881068512672918,1224882677936208,1151472742702655,592006797094234,656345793757227,877157950664285,871621197584579,1242042751047449,868815111389782,1216253083316171","1193096074780780,1202003470308319,818597024974992,623497844436346,865486474700577,1144146399031754,704949997839383,1313190884786760,1172430819139792,648525876344618,1128329270945852,619738429158848,689279594966959,868979199647621,696303730765573,958602435127606,1304456190659449,1132520168125650,909531836331413,550639993191378,585192826161477,645796006367089,1235328331316271,833727414513307,1064626459240121,1274529813061855,831874032989869,635767014777690,972931787567383,1171987185469806,949049494480930,784061477239139,1264727299118618,1107249340978249,646672113492683,939872204189528,1148763515532091,1281730196978815,1281730196978815,1018081544703448,1282890056251489,1073254137157159,1288051650495794,1118996510178375,872321036841122,779339624756606,1271204612274121,1275378296799320,1164298769266153,756247067188042",,
224,942572808453646,"31 Mamaroneck Avenue","3rd Floor","White Plains",NY,10601,,USA,,"Physical Address",1174244436297654,881897740733384,,
225,943075390128812,"280 North Central Avenue, Suite 450",,Hartsdale,NY,10530,,USA,,physical_address,959690639051365,1130960987420980,,
226,944853548512062,"250 West 64th Street",,"New York",NY,10023,,,,,946288203514985,"900904477977142,666160522829291,1243533464065853",,
227,959807357164828,"77 Water Street","7th Floor","New York",NY,10005,,,,,"831035079823150,1166676498043777,584835880268323","1201612629668842,587434079564381,1214881164658172",,
228,955964085225954,"5141 Broadway",,"New York",NY,10034,,,,,820259091149125,1234039610795036,,
229,962627788475931,"85 Pondfield Road",,Bronxville,NY,10708,,USA,,,1333755199774058,1189715623722716,,
230,985003568514780,"12 Tibbits Avenue",,"White Plains",NY,10606,,USA,,physical_address,718148789386701,1288869394363879,,
231,989558810317987,"2550 Webb Avenue",,Bronx,NY,10468,,,,,861782754706397,913396682142826,,
232,941042918078004,"127 West 127th Street",,"New York",NY,10027,,,,,594665162219120,776533076120789,,
233,946910555470468,"2 Court Square ",,"Long Island City",NY,11101,,,,,,,,
234,942751698425590,"441 West 26th Street",,"New York",NY,10001,,,,,859141805722434,"865954914172697,729819108773188",,
235,957040097525162,"2381 Hylan Blvd.",,,,,,,,,1248664167371555,"970737263301233,1061527495042237",,
236,974738233198185,"845 North Broadway",,"White Plains",NY,10603,,USA,,physical_address,1322880754340982,"1260362559796750,945752833105371,852387643645016",,
237,978693219788877,"250 West 65th Street",,"New York",NY,10023,,,,,1252212274923057,979828351062250,,
238,995073113368146,"191 Joralemon Street",,Brooklyn,NY,11201,,,,,774273106095161,1308196365475201,,
239,1000297805548472,"4 New York Plaza, 4th Floor",,"New York",NY,10004,,,,,940815650068994,1189124293941749,,
240,1010477474135532,"65 Broadway"," 12th Floor","New York",NY,10006,,,,,"835561221232887,970995924679302,624587549571008","1183723038408337,637789679159005,944976351051041",,
241,977604944365977,"One Hogan Place",,"New York",NY,10013,,,,,1176851912000413,813642754389966,,
242,991323256401409,"360 Lexington Avenue","3rd Floor","New York",NY,10017,,,,,,,,
243,1011143435066447," 2131 Broadway",,"New York",NY,10023,,,,,,,,
244,1010565069679249,"60 East Tremont Avenue",,Bronx,NY,10453,,,,,574635489323480,1147705615071897,,
245,1017082442313506,"141 West 73 Street",,"New York","NY ",10023,,,,,844869320287985,882346709521737,,
246,987078843480161,"20 Wood Court",,Tarrytown,NY,10591,,USA,,physical_address,890827911702233,,,
247,1007514442673709,"222 East 23rd Street","#212 ","New York",NY,10010,,,,,1181479920064319,662290598368678,,
248,1012648205679109,"5961 Palisade Ave.",,,,,,,,,1056584562594595,855181083326261,,
249,1038598330856856,"250 South 6th Avenue",,"Mount Vernon",NY,10550,,USA,,,1184828226037831,1264560206833433,,
250,1046564988067170,"10 Lenox Avenue ",,"New York","NY ",10026,,,,,,,,
251,1064244123014557,"505 E. 70th Street",,,,,,,,,771483187355049,742345692201969,,
252,1090470540858526,"506 Hamburg Turnpike, Suite 102",,Wayne,NJ,07470,,,,,792178334018646,633851278206049,,
253,1099501997135733,"19 Narrangansett Avenue",,Ossining,"New York",10562,,,,physical_address,"1279609127127414,785448993002585","875403809995974,964058957510307",,
254,1040089308252309,"10 Union Square East",,"New York",NY,10003,,,,,"831478916763568,609837285915880","781367055440863,781367055440863",,
255,1070365286349848,"180 Livingston Street",,Brooklyn,NY,11201,,,,,778812412818107,983906763425133,,
256,1091475809166190,"37 West 26th Street",,"New York",NY,10010,,,,,1071945974194624,629288783459442,,
257,1095778859933494,"248 West 108th Street",,"New York",NY,10025,,,,,873392952410289,1228720163916900,,
258,1104481278003848,"333 W. 86th St. ",,"New York",NY,10024,,,,,,,,
259,1066734108371157,"329 East 62nd Street",,"New York",NY,10065,,,,,792766212966007,821364371870454,,
260,1077968827043382,"34 Park Avenue",,"Bay Shore",NY,"11706 ",,,,,779111459211010,846867475547086,,
261,1089588257205887,"345 E. 24th Street",,"New York",NY,10010,,,,,1290928693472525,1157865767601907,,
262,1104369715141430,"117 Church Avenue ",,Brooklyn,NY,11218,,,,,,,,
263,1103807924148960,"119-45 Union Turnpike","5th Floor","Forest Hills",NY,11375,,,,,966914096445103,616027474928772,,
264,1108226704309945,"57 Willoughby Street ",,Brooklyn,NY,11201,,,,,,,,
265,1115099782867957,"100 Veterans Memorial Highway",,,,,,,,,1117572001125322,1196279776508741,,
266,1093634927600387,"PO Box 515381",,,,,,,,,1184649940863336,888456338601707,,
267,1114497745056986,"126 Crosby Street",,"New York",NY,10012,,,,,842942376713289,1087963110530465,,
268,1127647341739791,"8637 Fredericksburg Road ","Suite 100","San Antonio","TX ",78240,,,,,,,,
269,1131567227207238,"443 39th Street","4th Floor",Brooklyn,NY,11232,,,,,1103190764094168,,,
270,1125985473489689,"1 Wartburg Place",,"Mount Vernon",NY,10552,,USA,,,1244833784703696,647229496315746,,
271,1089194803070930,"33 West 42nd Street",,"New York",NY,10036,,,,,1213309130919325,800813664639683,,
272,1091732696488921,"2 Lafayette Street","6th Floor","New York",NY,10007,,,,,"962950961587263,1166518935930177,1196705040717547","1161880617276485,1254802786086522,1213036607295521",,
273,1103152850074440,"PO Box 21009",,,,,,,,,897643592121126,938471611520186,,
274,1107694687614602,"1800 15th Street","Suite 100",Denver,CO,80202,,,,,656162201896628,1261034223345738,,
275,1119370970092112,"1000 Fifth Avenue",,"New York",NY,10028,,,,,1211776986922808,"962264766401803,814314701238234",,
276,1116749681420034,"PO Box 122",,"Cos Cob",CT,06807,,USA,,postal_address,657308519913165,784080264183843,,
277,1122669078685279,"39 Broadway","10th Floor","New York",NY,10006,,,,,840514443838048,645544600514407,,
278,1124196137589616,"171 Madison Avenue","Suite #1405 ","New York",NY,10016,,,,,670929657094775,629330886498169,,
279,1125425694826942,"2600 Netherland Avenue",,Bronx,NY,10463,,,,,826434062003328,652845412907744,,
280,1121885113747737,"167 East 64th Street ",,"New York",NY,10065,,,,,,,,
281,1129861482680271,"1844 2nd Avenue",,"New York",NY,10128,,,,,"1245210302703235,604286463973708","884103943459443,592617644766948,979647759133794,887505557148962,818205341298030",,
282,1078904808920976,"290 Third Avenue",,,,,,,,,939450579574156,1124735196190933,,
283,1087856289552940,"2 Westchester Plaza",,Elmsford,"New York",10523,,USA,,,1287995287654906,766329040815982,,
284,1103782762263375,"37-18 Northern Boulevard","Suite 107","Long Island City",NY,11101,,,,,1231170403100009,658507157960815,,
285,1141516640503161,"145 East 32nd Street ","8th Floor","New York",NY,10016,,,,,,,,
286,1143989115790991,"166 Avenue of The Americas",,"New York",NY,10013,,,,,1167257649168566,753881045700684,,
287,1092371168209127,"20 Washington Square North",,"New York",NY,10011,,,,,813872266131333,713324434220839,,
288,1123406869458717,"150 West 100th Street","2nd Floor","New York",NY,10025,,,,,914639497723129,"1131541525040619,1269213379965326",,
289,1136857024778610,"312 East 109th Street",,"New York",NY,10029,,,,,1304705637644101,"949896723161271,870520437466443",,
290,1139790966644919,"600 Tuckahoe Road",,Yonkers,NY,10710,,USA,,physical_address,1063973581790538,1279542912229691,,
291,1147497369826213,"P.O. Box 9174 ",,Astoria,NY,11103,,,,,,,,
292,1097684414081172,"208-11 26th Avenue",,Bayside,NY,11360,,,,,786555442968834,938961765281346,,
293,1102510485832658,"331 East 12th Street",,"New York",NY,10003,,,,,564742220711597,1155205412613057,,
294,1116536142852359,"180 Mott Street",,"New York",NY,10002,,,,,1287623235982960,857712296030293,,
295,1117525606695978,"P.O. Box 9174",,,,,,,,,1161911553506036,1090068972800338,,
296,1120080866522434,"80 Maiden Lane","8th Floor","New York",NY,10038,,,,,"1160012504793222,1115949119526284","1299966772928860,1063459575997908,1213543511414419",,
297,1119674791786092,"14 Nosband Avenue, Suite 3C",,"White Plains",NY,10605,,,,physical_address,1106732953211611,875704457864885,,
298,1126704618162770,"51 West 109th Street",,"New York",NY,10025,,,,,,,,
299,1147007275983955,"590 North 7th Street",,Newark,NJ,07107,,,,,1081850790467536,869422949711757,,
300,1153538925060221,"77 Water Street","7th Floor","New York",NY,10005,,,,,,,,
301,1160936336950978,"42-41 201st Street",,,,,,,,,1160596143883349,866884149771351,,
302,1161463956709772,"165 West 65th Street","10th Floor","New York",NY,10023,,,,,600077058426789,641800255430222,,
303,1164534763609607,"32 Cedar Lane",,Ossining,NY,10562,,USA,,physical_address,885499464622138,609793261225466,,
304,1111497187226592,"27-40 Hoyt Avenue South",,,,,,,,,878704477770045,665503981563170,,
305,1120137252016052,"490 Second Avenue",,"New York",NY,10016,,,,,,,,
306,1131730686430679,"65 Broadway ","12th Floor ","New York",NY,10006,,,,,,,,
307,1138586115166731,"10 Union Square East","5th Floor Conference Room","New York",NY,10003,,,,,,,,
308,1142969600429861,"25 North Malcolm Street",,Ossining,NY,10562,,USA,,physical_address,1142218786400766,886820512656238,,
309,1145767121937612,"40 Keogh Lane",,"New Rochelle",NY,10805,,USA,,physical_address,1231301497613719,650409579169663,,
310,1146787602507424,"140 West 106th Street",,"New York",NY,10025,,,,,"1100086303377827,1241863926704431","1271796728231431,1191469119701878",,
311,1165366254470860,"3 Washington Square Village","Suite 1F","New York",NY,10012,,,,,1211523035276152,"1197386597844620,1283877760992968",,
312,1162670301083858,"7910 Woodmont Avenue "," Suite 1200",Bethesda,MD,20814,,,,,,,,
313,1123120065134683,"2345 Broadway",,"New York",NY,10024,,,,,731347581640527,867179253373388,,
314,1142043056498164,"40 Triangle Center",,"Yorktown Heights","New York",10598,,,,,651880716415612,627511706500348,,
315,1149988378694633,"290 Third Avenue ","Suite 26C ","New York",NY,10010,,,,,,,,
316,1150624172907663,"305 West End Avenue",,"New York","NY ",10023,,,,,792647573931865,"830884025300190,1155024736332656",,
317,1162553500902394,"115 Broadway",,"Dobbs Ferry",NY,10522,,,,,1268369769901803,943177373790677,,
318,1167973256390437,"55 Kip Avenue",,Rutherford,NJ,07070,,,,,742394022054398,1158759157820535,,
319,1179892637853969,"11 Park Place","14th Floor","New York",NY,10007,,,,,1192388551570388,"1068692989341970,653008088512697,901976308727761,1087394420679981",,
320,1182065464688915,"630 West 168th Street",,"New York",NY,10032,,,,,1054665442712864,1194049297811679,,
321,1180859359074125,"P.O. Box 602",,,,,,,,,611465990733201,"893792185496529,1106906665297264",,
322,1137742849854717,"355 Lexington Avenue",,"New York",NY,10017,,,,,1163679734692717,"1261701871106227,1113339829525706",,
323,1153142435839174,"730 Columbus Avenue","Suite 3C ","New York","NY ",10025,,,,,785836677337472,1012491329529162,,
324,1177751413930818,"400 East Fordham Road ","13th Floor",Bronx,NY,10458,,,,,,,,
325,1180366400470295,"7 Hanover Square",,"New York",NY,10004,,,,,698464460411906,"802543237937238,1227805757052460",,
326,1176478764744540,"715 North Avenue",,"New Rochelle",NY,10801,,USA,,postal_address,1234704131763768,828175339740471,,
327,1192735875389618,"40 West 20th Street",,"New York",NY,10011,,,,,1147974066065082,1133756352370821,,
328,1162784133908783,"290 Broad Street ",,Summit,NJ,07901,,,,,,,,
329,1156951039814185,"42-41 201st Street ",,Bayside,NY,11361,,,,,,,,
330,1158097293437593,"1844 2nd Avenue ",,"New York",NY,10128,,,,,,,,
331,1163745181618681,"1889 Palmer Avenue, #4",,Larchmont,NY,10538,,USA,,,1296107497326788,976697714672744,,
332,1170467860831905,"2381 Hylan Boulevard","Suite 15","Staten Island",NY,10306,,,,,629528344595784,581914407561626,,
333,1175754335304989,"99 Fort Washington Avenue",,"New York",NY,10032,,,,,1175734426903224,1247905330263033,,
334,1179412541609232,"199 14th Street",,Brooklyn,NY,"11215 ",,,,,1272585219567649,964120808558816,,
335,1178259965284475,"157 West 72nd Street",,"New York",NY,10023,,,,,923381638372747,1026935441827200,,
336,1202000137791062,"305 North Street",,"White Plains",NY,10605,,USA,,,636785171594340,1282944752309630,,
337,1200903674125150,"2078 Second Avenue",,"New York",NY,10029,,,,,826388597666813,1093514835093035,,
338,1214115814960131,"445 East 80th Street","Suite 14B","New York",NY,10021,,,,,875669545190590,1066497640168657,,
339,1176689438284938,"59-45 161st Street ","Fl 2","Fresh Meadows",NY,11365,,,,,,,,
340,1177660468233004,"69 Grandview Avenue",,,,,,,,,1192824025321946,"1129939373114087,1136963003142257,608815884165791",,
341,1190531990465047,"25 Flatbush Avenue","5th Floor",Brooklyn,NY,11217,,,,,898060688155114,563583310600900,,
342,1186852906133131,"45-25 Kissena Boulevard",,Flushing,NY,11355,,,,,946178298934653,1129429578221496,,
343,1190797607853353,"3754 10th Avenue",,"New York",NY,10034,,,,,966285085008728,953356879922443,,
344,1194305757951964,"326 Columbus Avenue, 4E",4E,"New York",NY,10023,,,,,1080980334266782,960228911790200,,
345,1220633018170310,"78 Stratton Street South",,Yonkers,NY,10701,,USA,,physical_address,882287285471115,888464653240277,,
346,1224085287697530,"701 Westchester Avenue Suite 203E",,"White Plains",NY,10538,,,,,,,,
347,1234206261029242,"100 East 77th Street",,"New York",NY,10075,,,,,657361025169638,1327603866686607,,
348,1178537728854068,"510 Hempstead Turnpike",,,,,,,,,1333065740668009,1294162364398922,,
349,1189642823268469,"One Fordham Plaza","Suite 908",Bronx,NY,10458,,,,,930952826074629,1143448616335218,,
350,1192151437389051,"247 West 37th Street",,"New York",NY,10018,,,,,1195785480679036,1181459905867825,,
351,1195064303629753,"141 Tompkins Avenue, 3rd Floor",,Pleasantville,NY,10570,,USA,,physical_address,808376525570252,1226151206612260,,
352,1219392319914046,"701 N Broadway","755 Building, 4th Floor","Sleepy Hollow",NY,10591,,USA,,,817374827138799,1004269911149631,,
353,1223508587714383,"5402 New Utrecht Avenue",,Brooklyn,NY,11219,,,,,608050564781011,"906157907788099,1292864991200757",,
354,1235319083099402,"55 Grasslands Road",,Valhalla,NY,10595,,USA,,physical_address,1128494164406363,984041615403419,,
355,1236450613473168,"1200 Waters Place",,Bronx,NY,10461,,,,,,,,
356,1180401435417081,"1 North Lexington Avenue",,"White Plains",NY,10601,,,,physical_address,"991953561809803,1230520200734896","923999939595541,789430554421597",,
357,1214465988869811,"387 Grand Street",,"New York",NY,10002,,,,,1148019099417774,1125800033041427,,
358,1238210936535122,"961 Ocean Avenue",,Brooklyn,NY,11226,,,,,1191099419278865,1206865188941552,,
359,1240598614624115,"290 Ninth Avenue",,"New York",NY,10001,,,,,972498722527865,727746373311059,,
360,1192682334798639,"141 West 73rd Street",,"New York",NY,10023,,,,,1054819580338538,1336043764520811,,
361,1210173169151479,"5901 Palisade Avenue",,Riverdale,NY,10471,,,,,"1310893124940771,1249390679707688","1232107467923366,941809353186859",,
362,1215145469655978,"77 Water Street"," 7th floor","New York",NY,10005,,,,,,,,
363,1231159379435176,"206 East 4th Street",,"New York",NY,10009,,,,,1200511949065685,949462934858305,,
364,1254923980737856,"2300 Catherine Street",,"Cortlandt Manor",NY,10567,USA,,,,1299900450585072,867670607442498,,
365,1256625945825770,"475 Riverside Drive","Suite 1846","New York",NY,10115,,,,,1304313664181912,"1288178816196946,991868453384068",,
366,1263202967869983,"49 West 45th Street","7th Floor","New York",NY,10036,,,,,1256762981767588,816733464389484,,
367,1207735296283447,"1011 First Avenue ","6th Floor","New York",NY,10022,,,,,,,,
368,1226606873896653,"1200 Waters Place"," First Floor",Bronx,NY,10461,,,,,,,,
369,1231025244767006,"265 Henry Street",,"New York",NY,10002,,,,,745545957016997,"904435870052202,647963469199800",,
370,1229897682694786,"3575 Geary Boulevard",,"San Francisco",CA,"94118 ",,,,,1108016909440840,1277328910091903,,
371,1234378012832324,"79 West Grand Street",,Elizabeth,NJ,07202,,,,,599306518734171,902915716647397,,
372,1238038149570670,"1393 York Avenue",,,,,,,,,1313811808076784,1264942737150905,,
373,1255874882443712,"3600 Blue Ridge Boulevard",,Grandview,MO,64030,,,,,566266798182272,1019842691268144,,
374,1257871518955807,"80-02 Kew Gardens Road, #400",,"Kew Gardens",NY,11415,,,,,818466611933505,1149681920153095,,
375,1256797300528041,"One Bergen County Plaza ","2nd Floor  ",Hackensack,NJ,07601-7076,,,,,,,,
376,1219157248301161,"622 W. 168th Street",,"New York",NY,10032,,,,,636786818241649,584037093110292,,
377,1224855212067444,"475 Riverside Dr.","Suite 1846","New York",NY,10115,,,,,1257004067187467,,,
378,1234611396518606,"108-25 62nd Drive",,"Forest Hills",NY,11375,,,,,1114814832620769,1300575732417581,,
379,1245677931993258,"7 Penn Plaza ",,"New York",NY,10001,,,,,,,,
380,1246275154405508,"487 East Main Street 218",,"Mount Kisco",NY,10549,,USA,,postal_address,574376589030689,1252521081622287,,
381,1267855411228292,"675 Third Avenue","Suite 1905"," New York","NY ",10017,,,,,913322059376271,901066062072005,,
382,1218004392452674,"322 Eighth Avenue","8th Floor","New York",NY,10001,,,,,1149107541488250,"911239601037044,1263717593353769,1266327100220698,861551426759241",,
383,1242402592239497,"162 Garfield Place",,Brooklyn,NY,11215,,,,,942582231528336,691036117584255,,
384,1249188438419399,"252 Bryant Avenue",,"White Plains",NY,10605,,USA,,physical_address,811993746307414,1195859334581308,,
385,1274441827605514,"50 Broadway","6th Floor","New York",NY,10004,,,,,"1207137421921677,1106986722041635","777878575131334,662053153004389",,
386,1286244915576853,"1406 Baker Pavilion",,"New York",NY,10065,,,,,612991570845915,760494792675702,,
387,1243005692710265,"57 Willoughby Street",,,,,,,,,"1302546941077364,686559333444510","1229958599094903,807781285922296,852591308861622",,
388,1258757188971413,"69 Grandview Avenue ",,"White Plains",NY,10605,,,,,,,,
389,1288185441349354,"1A Clinton Street",,Pleasantville,NY,10570,,USA,,physical_address,1099836114714012,885401816965082,,
390,1285864870627527,"676 Pelham Road",,"New Rochelle",NY,10805,,USA,,physical_address,1134526234412344,568545427254648,,
391,1261921802141482,"355 Pelham Road",,"New Rochelle",NY,10805,,USA,,physical_address,1096776868392058,853792809831330,,
392,1265939883950171,"3001 West 37th Street",,Brooklyn,NY,11224,,,,,"1204325968125772,869437581538741","821251992076057,794585631951212,1018060635204154,640786236939343",,
393,1271093616374851,"41 East Post Road Room 563",,"White Plains",NY,10601,,USA,,physical_address,677875567988405,757049656815040,,
394,1278000830181039,"2553 University Avenue",,Bronx,NY,10468,,,,,1106697137818738,1307397345920479,,
395,1296826628696565,"69 East Post Road",,"White Plains",NY,10601,,USA,,,822930793411589,1219895967348154,,
396,1299601042782651,"59 Maiden Lane","22nd Floor","New York",NY,10038,,,,,939569956066267,1176517928581962,,
397,1301817408777665,"275 North Street",,Harrison,NY,10528,,USA,,physical_address,1275169097954443,"632484546642124,814910120354434,767280654488239",,
398,1248372735543186,"1203 Mamaroneck Avenue",,"White Plains",NY,10605,,,,,915020233717830,1289293867285970,,
399,1263798668853558,"125 Maiden Lane",,,,,,,,,1121951781319959,1213146706836283,,
400,1272158559516586,"97-77 Queens Boulevard ",,"Rego Park",NY,11374,,,,,,,,
401,1280995872366568,"302 West 91st Street ",,"New York",NY,10024,,,,,,,,
402,1301442294583716,"1114 1st Avenue",,"New York",NY,10065,,,,,885139826284948,1026935441827200,,
403,1313979703298136,"127 Amsterdam Avenue","Ground Floor","New York",NY,10023,,,,,1327394866894620,"1131541525040619,1269213379965326",,
404,1255409607074380,"231 W. 29th Street","Suite 400 ","New York","NY ",10001,,,,,820079646127619,1117909921413991,,
405,1261367709410468,"500 Greenwich Street","3rd Floor","New York",NY,10013,,,,,1246575464969417,942162107607836,,
406,1261034736784408,"77 Jackson Avenue",,Scarsdale,NY,10583,,USA,,physical_address,886902586328624,555360101755779,,
407,1273336219947260,"399 Knollwood Road, Suite 107",,"White Plains",NY,10603,,,,,601838143260855,826218319073935,,
408,1278447139829997,"163 William Street","Room 310","New York",NY,10038,,,,,964118028121674,898653528603878,,
409,1283192987057603,"19 Court Street, Suite 206",,"White Plains",NY,10601,,USA,,physical_address,1287424250598133,1268019740852547,,
410,1289820726513689,"201 East 28th Street",,,,,,,,,1037868065351449,1193042326559791,,
411,1291204015190717,"80 Maiden Lane","23rd Floor","New York","NY ",10038,,,,,,,,
412,1307457409975490,"168 Canal Street",,,,,,,,,1084416941008565,1129703563295415,,
413,1269840653789809,"136 Powers Street","Suite 1F ",Brooklyn,NY,11211,,,,,820918468700428,950276035895444,,
414,1272681394678444,"2930 Wallace Avenue ",,Bronx,NY,10467,,,,,,,,
415,1273025247046572,"15 Walden Hill",,Chappaqua,NY,10514,,,,physical_address,1319826188144530,,,
416,1292165976548285,"100 LaSalle Street",,"New York",NY,10027,,,,,1107417462373750,1253214211998009,,
417,1291417137894411,"593 Columbus Avenue",,"New York",NY,10024,,,,,621483052059786,1021042715591141,,
418,1302585473484597,"2780 Broadway",,"New York",NY,10025,,,,,576975032913041,916134569938827,,
419,1321767444873757,"7910 Woodmont Avenue",,,,,,,,,989050730800226,643787403693759,,
420,1279987758701538,"1730 2nd Avenue",,"New York",NY,10128,,,,,1036419362268281,1124251611013743,,
421,1284694775771908,"490 Second Avenue",,"New York",NY,10016,,,,,"973643028272240,784828668663007","980285269693573,980285269693573",,
422,1294610371622695,"2001 Palmer Avenue",,,,,,,,,1058744444148098,601657347342653,,
423,1308671721967520,"257 West 30th Street",,"New York",NY,10001,,,,,571527641040410,1218662248579999,,
424,1324143794665987,"80-45 Winchester Boulevard","Bldg. #4, CBU #29 ","Queens Village",NY,11427,,,,,1239316263027446,828222998498950,,
425,1325364228156121,"77 Tarrytown Road",,"White Plains",NY,10607,,USA,,physical_address,1211465314122001,922757855773332,,
426,1340368677379194,"3001 West 37th Street",,Brooklyn,NY,11224,,,,,,,,
